{"type": "FeatureCollection", "features": [{"type": "Feature", "properties": {"lineId": "5", "name": "\u0424\u0440\u0443\u043d\u0437\u0435\u043d\u0441\u043a\u043e-\u041f\u0440\u0438\u043c\u043e\u0440\u0441\u043a\u0430\u044f \u043b\u0438\u043d\u0438\u044f: \u0428\u0443\u0448\u0430\u0440\u044b \u2014 \u041a\u043e\u043c\u0435\u043d\u0434\u0430\u043d\u0442\u0441\u043a\u0438\u0439 \u043f\u0440\u043e\u0441\u043f\u0435\u043a\u0442", "ref": "5"}, "geometry": {"type": "LineString", "coordinates": [[30.4322461, 59.8206936], [30.4321719, 59.8207665], [30.4321639, 59.8207744], [30.4302416, 59.8226349], [30.4225276, 59.8300997], [30.4220814, 59.8304888], [30.421409, 59.8310126], [30.4209736, 59.8313255], [30.4205395, 59.8316074], [30.4192348, 59.8323165], [30.4185609, 59.8326736], [30.4179646, 59.8330458], [30.4175918, 59.8333323], [30.4172575, 59.8336235], [30.4170226, 59.8338502], [30.4115387, 59.8393935], [30.4109131, 59.8399976], [30.410472, 59.8404236], [30.399493, 59.8509976], [30.3992534, 59.8512869], [30.399046, 59.8515834], [30.3987667, 59.8520553], [30.3986608, 59.8522471], [30.3979227, 59.8536909], [30.3972023, 59.8549355], [30.3970308, 59.8551906], [30.3967559, 59.855536], [30.3955198, 59.8567294], [30.3935915, 59.858591], [30.3853661, 59.8660843], [30.3846593, 59.8666956], [30.3841543, 59.8670908], [30.3830989, 59.8679041], [30.383051, 59.8679374], [30.3819625, 59.868654], [30.380918, 59.8693419], [30.3795538, 59.8702581], [30.3789402, 59.8707354], [30.3783816, 59.8711865], [30.3777632, 59.8718599], [30.3749712, 59.8754782], [30.3727468, 59.8783383], [30.3721043, 59.879377], [30.3709397, 59.88158], [30.3704776, 59.8823515], [30.3702332, 59.8827597], [30.3699105, 59.8833166], [30.3696135, 59.883731], [30.3693548, 59.8840455], [30.3646743, 59.8892742], [30.3640291, 59.8900263], [30.3636033, 59.8906614], [30.3633968, 59.8910651], [30.362369, 59.893601], [30.362078, 59.894243], [30.3617398, 59.8949256], [30.3612445, 59.8957083], [30.3610186, 59.8960139], [30.360642, 59.8966155], [30.3599433, 59.8977321], [30.3589717, 59.8991716], [30.3585792, 59.8996116], [30.3504114, 59.907445], [30.3498588, 59.9081424], [30.3494566, 59.9088072], [30.3493606, 59.9096529], [30.3493916, 59.9100704], [30.3494972, 59.9103609], [30.3503874, 59.9120724], [30.3505983, 59.9124451], [30.3510416, 59.9131443], [30.3514839, 59.9138407], [30.3517767, 59.9143581], [30.3520823, 59.9151181], [30.3522809, 59.9158168], [30.352348, 59.9162153], [30.3522352, 59.9167826], [30.3518983, 59.9174394], [30.3515302, 59.9178129], [30.3494869, 59.9200501], [30.348692, 59.9206485], [30.3475027, 59.9212642], [30.3459388, 59.9218385], [30.3443933, 59.9222957], [30.3432797, 59.922518], [30.3418205, 59.9227214], [30.3407466, 59.9227793], [30.3394574, 59.9227713], [30.3381647, 59.9227258], [30.3367497, 59.9226351], [30.3340654, 59.9222247], [30.332748, 59.9220089], [30.3314368, 59.9217964], [30.3294818, 59.9214993], [30.3285925, 59.9214624], [30.3267278, 59.9214531], [30.3256818, 59.9214944], [30.3244179, 59.9216054], [30.3236435, 59.9217518], [30.3230359, 59.9218946], [30.3224093, 59.9220669], [30.3217615, 59.9222981], [30.3208852, 59.9226868], [30.3200918, 59.9231371], [30.3197757, 59.9233897], [30.3194351, 59.9237405], [30.3192305, 59.9240987], [30.3191488, 59.9243622], [30.3190411, 59.9247817], [30.3189988, 59.9252431], [30.3190582, 59.9256472], [30.3191772, 59.9261641], [30.3192695, 59.926525], [30.3195495, 59.9275958], [30.3197803, 59.9284786], [30.3198732, 59.9287231], [30.3202358, 59.9298723], [30.3203989, 59.930219], [30.3205416, 59.9304954], [30.3207393, 59.9308126], [30.3210094, 59.9312439], [30.3211172, 59.9315312], [30.3211561, 59.9319263], [30.3210849, 59.9323623], [30.3210301, 59.9325109], [30.3209019, 59.9328584], [30.3206711, 59.9333013], [30.3204318, 59.9336197], [30.32013, 59.933929], [30.3197584, 59.9342318], [30.3193216, 59.9345195], [30.3188654, 59.9347666], [30.31836, 59.9349937], [30.3178157, 59.9351955], [30.3172456, 59.9353684], [30.3139449, 59.9361982], [30.3113051, 59.9368348], [30.3098776, 59.9371467], [30.3088805, 59.9373132], [30.3012875, 59.9383136], [30.3006358, 59.9384451], [30.2996631, 59.9386536], [30.2987556, 59.9389255], [30.2977611, 59.9392813], [30.2965807, 59.9397377], [30.2959227, 59.9400321], [30.2885566, 59.9436826], [30.287795, 59.9441171], [30.2873191, 59.9444525], [30.2870619, 59.9447743], [30.2867109, 59.9452627], [30.2864763, 59.9456807], [30.2863467, 59.9462672], [30.286316, 59.946597], [30.2863544, 59.9469552], [30.2865958, 59.9474756], [30.2870523, 59.9481311], [30.2873913, 59.948513], [30.2877048, 59.9488457], [30.2881544, 59.9492702], [30.2891949, 59.9500989], [30.2900381, 59.9507739], [30.290976, 59.9515396], [30.2922281, 59.9525456], [30.2927437, 59.9530078], [30.2929033, 59.9532292], [30.2931663, 59.9536866], [30.2934083, 59.9543818], [30.2934282, 59.9547663], [30.2929209, 59.9577163], [30.2927557, 59.9586421], [30.2926315, 59.9593437], [30.2925007, 59.9600822], [30.2921671, 59.9612159], [30.291856, 59.9617946], [30.2915828, 59.9622044], [30.291158, 59.9626724], [30.2909145, 59.9628734], [30.2906704, 59.9630305], [30.2899998, 59.9634097], [30.2893213, 59.9637], [30.2887523, 59.9639028], [30.2880923, 59.9640915], [30.2809995, 59.9657336], [30.2694099, 59.9683344], [30.2679922, 59.9686362], [30.266784, 59.9689521], [30.2660545, 59.9691751], [30.2633837, 59.9702267], [30.2623223, 59.9706746], [30.2612569, 59.9711242], [30.2603391, 59.971519], [30.2592892, 59.9720134], [30.2587611, 59.9722804], [30.2583115, 59.9726065], [30.2578635, 59.9730193], [30.2574178, 59.9735989], [30.2570764, 59.9741894], [30.256882, 59.9745688], [30.2567401, 59.9750569], [30.2566722, 59.9753597], [30.256604, 59.9772279], [30.2568045, 59.9823193], [30.2565345, 59.9840089], [30.2558897, 59.9872001], [30.2557638, 59.9876856], [30.2556399, 59.9881633], [30.2556019, 59.988332], [30.2555743, 59.9884998], [30.2556137, 59.988872], [30.2556788, 59.9893422], [30.2557739, 59.9899061], [30.2559272, 59.9905045], [30.2561947, 59.9913071], [30.2609077, 60.0046985], [30.2609769, 60.0050299], [30.2609844, 60.0053378], [30.2609552, 60.0055861], [30.2608514, 60.0060828], [30.2607032, 60.0064977], [30.2604361, 60.0069925], [30.2601957, 60.0073679], [30.2599287, 60.0077145], [30.2597608, 60.0078931], [30.2595587, 60.0080749], [30.2586346, 60.0087985], [30.2582628, 60.0091074], [30.2573634, 60.0098706], [30.2561608, 60.0109097]]}}]}
