{"type": "FeatureCollection", "features": [{"type": "Feature", "properties": {"lineId": "2", "name": "\u041c\u043e\u0441\u043a\u043e\u0432\u0441\u043a\u043e-\u041f\u0435\u0442\u0440\u043e\u0433\u0440\u0430\u0434\u0441\u043a\u0430\u044f \u043b\u0438\u043d\u0438\u044f: \u041f\u0430\u0440\u043d\u0430\u0441 \u2014 \u041a\u0443\u043f\u0447\u0438\u043d\u043e", "ref": "2"}, "geometry": {"type": "LineString", "coordinates": [[30.3349666, 60.0666955], [30.3350916, 60.0666706], [30.3357008, 60.0665416], [30.3364786, 60.0663542], [30.3372966, 60.0660925], [30.3378627, 60.0658122], [30.3385882, 60.0653059], [30.3391635, 60.0648431], [30.3396583, 60.0643824], [30.3399467, 60.0640668], [30.3402141, 60.0636519], [30.3406119, 60.0611889], [30.3406227, 60.0608355], [30.3406066, 60.0605945], [30.34051, 60.0603723], [30.3382838, 60.0572451], [30.3341405, 60.0515778], [30.3340579, 60.0514152], [30.3339944, 60.051094], [30.3339248, 60.050945], [30.333686, 60.0506033], [30.3333592, 60.0503443], [30.3332439, 60.0501571], [30.3327871, 60.049443], [30.3324835, 60.0489684], [30.3298724, 60.0449501], [30.3293992, 60.0444278], [30.3290969, 60.044155], [30.3288757, 60.0439731], [30.3261807, 60.0419144], [30.3231186, 60.0396247], [30.3226572, 60.0391505], [30.3221983, 60.0385938], [30.3219432, 60.0382745], [30.3217535, 60.0380079], [30.3216043, 60.0377531], [30.3214706, 60.0374978], [30.321019, 60.0359435], [30.3208594, 60.0353277], [30.320709, 60.0347475], [30.3204524, 60.0339903], [30.320273, 60.0332284], [30.3201815, 60.0325889], [30.3201842, 60.0322178], [30.3202298, 60.0318319], [30.3203022, 60.0314393], [30.3205597, 60.0307185], [30.3209406, 60.0301624], [30.3240264, 60.0259876], [30.3242344, 60.0255462], [30.324583, 60.0246832], [30.3247011, 60.0240453], [30.3246581, 60.023327], [30.3242344, 60.0224318], [30.3234726, 60.0215151], [30.3229697, 60.0209743], [30.3224909, 60.0205125], [30.3219375, 60.0200854], [30.3205758, 60.0192822], [30.3190718, 60.0185215], [30.318825, 60.0183966], [30.3180541, 60.0179742], [30.3172856, 60.0175531], [30.3150775, 60.0163438], [30.3132212, 60.0155639], [30.3114177, 60.0148675], [30.3025029, 60.0113341], [30.3000271, 60.0102166], [30.2979004, 60.0090056], [30.2969563, 60.0083621], [30.2961624, 60.00763], [30.2958405, 60.0069717], [30.2957332, 60.00632], [30.2957761, 60.0059808], [30.2958512, 60.0056107], [30.2960569, 60.0048942], [30.2961949, 60.0042832], [30.2963385, 60.0036478], [30.2968285, 60.0021825], [30.2969737, 60.0018271], [30.2971422, 60.0014842], [30.2974375, 60.0010445], [30.2997644, 59.9980319], [30.300116, 59.9974621], [30.3003639, 59.9968888], [30.3004741, 59.9961447], [30.3007539, 59.9893209], [30.300736, 59.98836], [30.3006997, 59.9878193], [30.3007392, 59.987224], [30.3007738, 59.9867015], [30.3008313, 59.9862609], [30.3008656, 59.9859809], [30.3009183, 59.9856984], [30.3010208, 59.9853202], [30.3011605, 59.9846485], [30.3013516, 59.9839134], [30.3034925, 59.9791624], [30.3055153, 59.9751584], [30.3064338, 59.9733008], [30.3069735, 59.9721156], [30.3074516, 59.9712126], [30.3079089, 59.9705939], [30.3084366, 59.9699954], [30.3094079, 59.9687777], [30.3104246, 59.9675952], [30.3114322, 59.9664336], [30.3118403, 59.9660069], [30.3127204, 59.9648929], [30.3131681, 59.9643262], [30.3138753, 59.9632134], [30.3169047, 59.9589839], [30.3174006, 59.9581964], [30.3183993, 59.9564035], [30.3188948, 59.9556858], [30.3192785, 59.9551252], [30.3196712, 59.9545515], [30.3207182, 59.9530332], [30.3212185, 59.9521583], [30.3219692, 59.9503811], [30.325324, 59.9438343], [30.3260595, 59.9423828], [30.3276075, 59.939387], [30.3280536, 59.9383419], [30.3285461, 59.9372847], [30.3286574, 59.9370606], [30.3287324, 59.9368279], [30.3287685, 59.9365675], [30.3287777, 59.9361614], [30.3287495, 59.9356329], [30.3287167, 59.9353186], [30.3286004, 59.9348213], [30.3285479, 59.9346857], [30.3283851, 59.9343847], [30.3281882, 59.9339823], [30.3278079, 59.9332052], [30.3275577, 59.9327629], [30.3272204, 59.9322734], [30.3267708, 59.9317512], [30.3265361, 59.931515], [30.3262599, 59.9312749], [30.3260133, 59.9310841], [30.3257112, 59.9308825], [30.3245512, 59.9302484], [30.3230577, 59.9296347], [30.3225283, 59.9293966], [30.3222016, 59.9292243], [30.321938, 59.9290523], [30.3215068, 59.928694], [30.3211143, 59.9283618], [30.3208926, 59.9281355], [30.3206643, 59.9278881], [30.3204042, 59.9274715], [30.3202017, 59.9269978], [30.3199134, 59.9261352], [30.3197412, 59.9255977], [30.3196628, 59.9249977], [30.3196793, 59.9244009], [30.3198391, 59.9238607], [30.3202071, 59.9229948], [30.3210669, 59.9207389], [30.321135, 59.9201349], [30.3210879, 59.9196675], [30.320894, 59.9191161], [30.3206435, 59.9185924], [30.3202111, 59.9179813], [30.3191813, 59.9169337], [30.3189859, 59.9167409], [30.3180055, 59.9157821], [30.3174801, 59.9151857], [30.3169044, 59.9145319], [30.3167312, 59.9143361], [30.3165185, 59.9141054], [30.3163114, 59.9138843], [30.3159532, 59.9134979], [30.3154678, 59.9129164], [30.3152338, 59.9126073], [30.3150036, 59.9123007], [30.3147666, 59.9119522], [30.3145759, 59.9115994], [30.3144311, 59.9111997], [30.3144633, 59.910612], [30.3147263, 59.9097391], [30.3150069, 59.9092701], [30.3159441, 59.9080802], [30.3161919, 59.9077635], [30.3173106, 59.906185], [30.3174372, 59.9060019], [30.3175312, 59.9058311], [30.3180487, 59.9047788], [30.3182214, 59.9042586], [30.3183514, 59.9037206], [30.3184602, 59.902502], [30.3185641, 59.8962211], [30.3184684, 59.8952807], [30.3179759, 59.8931501], [30.3178656, 59.8926611], [30.3177334, 59.892075], [30.317461, 59.8909638], [30.3173738, 59.890377], [30.3173787, 59.8899868], [30.3174382, 59.8895942], [30.3176314, 59.8889133], [30.3178543, 59.8882224], [30.3182505, 59.8873302], [30.3189969, 59.8855213], [30.3196475, 59.8840049], [30.319697, 59.8836171], [30.3196747, 59.8832095], [30.3195583, 59.8824365], [30.3193998, 59.8815901], [30.3191305, 59.880795], [30.3188996, 59.8802786], [30.3185086, 59.879404], [30.3183249, 59.8789888], [30.3182109, 59.8785662], [30.3181961, 59.8780268], [30.3182382, 59.8774836], [30.3184759, 59.8767304], [30.3202189, 59.8706478], [30.3206101, 59.8696309], [30.3211092, 59.8685854], [30.3213632, 59.8676089], [30.3215228, 59.8670093], [30.3216317, 59.8665589], [30.3216784, 59.8663765], [30.3217176, 59.8658767], [30.3217187, 59.8658621], [30.3216862, 59.865355], [30.3215341, 59.86457], [30.3214308, 59.8632764], [30.321444, 59.8621259], [30.321646, 59.8607628], [30.3219491, 59.8570604], [30.3218472, 59.854846], [30.321874, 59.8540702], [30.3220872, 59.8522443], [30.3221334, 59.8513976], [30.3221854, 59.8504762], [30.3222817, 59.8494388], [30.3225848, 59.8483543], [30.3230488, 59.8469814], [30.323317, 59.8463967], [30.3236604, 59.8458308], [30.3240037, 59.8454495], [30.324406, 59.8450722], [30.3248969, 59.8447461], [30.3253287, 59.8445023], [30.3303712, 59.8420795], [30.3409231, 59.8369223], [30.3427228, 59.8358751], [30.3444475, 59.8347429], [30.3449571, 59.8344693], [30.3453755, 59.834255], [30.3458691, 59.8340515], [30.3463894, 59.833879], [30.3469259, 59.8337361], [30.3481744, 59.8334369], [30.349007, 59.8332626], [30.3493868, 59.8331923], [30.3497477, 59.8331208], [30.3514235, 59.8328177], [30.3537601, 59.832395], [30.3547007, 59.8322678], [30.3548169, 59.8322521], [30.355635, 59.8321968], [30.356622, 59.8321874], [30.3573275, 59.8321955], [30.3581804, 59.8322521], [30.3599185, 59.8324408], [30.3616834, 59.83267], [30.3671779, 59.8333656], [30.3677612, 59.833414], [30.368641, 59.8334059], [30.3693764, 59.8333327], [30.370481, 59.8330986], [30.3715688, 59.8328097], [30.3723693, 59.8325486], [30.3730914, 59.8322825], [30.3736159, 59.8320394], [30.3739223, 59.8318235], [30.3741806, 59.8316029], [30.374397, 59.8313962], [30.3746914, 59.8310417], [30.3748192, 59.8308497], [30.374944, 59.8306545], [30.3751436, 59.8302774], [30.3757191, 59.8291158]]}}]}
