{"type": "FeatureCollection", "features": [{"type": "Feature", "properties": {"lineId": "1", "name": "\u041a\u0438\u0440\u043e\u0432\u0441\u043a\u043e-\u0412\u044b\u0431\u043e\u0440\u0433\u0441\u043a\u0430\u044f \u043b\u0438\u043d\u0438\u044f: \u041f\u0440\u043e\u0441\u043f\u0435\u043a\u0442 \u0412\u0435\u0442\u0435\u0440\u0430\u043d\u043e\u0432 \u2014 \u0414\u0435\u0432\u044f\u0442\u043a\u0438\u043d\u043e", "ref": "1"}, "geometry": {"type": "LineString", "coordinates": [[30.253494, 59.8418306], [30.2536031, 59.8418264], [30.2551853, 59.8418241], [30.256659, 59.8418845], [30.259272, 59.8422422], [30.2622796, 59.8427842], [30.2632781, 59.843079], [30.2643348, 59.8435535], [30.2672656, 59.8452315], [30.2678941, 59.8457431], [30.2681201, 59.8460339], [30.2683332, 59.8466086], [30.2685539, 59.8498503], [30.268558, 59.8506473], [30.2685595, 59.8514622], [30.2684544, 59.8562311], [30.2681121, 59.8570635], [30.2677262, 59.8576124], [30.2670161, 59.8580615], [30.2641468, 59.8597039], [30.2634609, 59.8603855], [30.2615136, 59.8656994], [30.2611933, 59.8664998], [30.2609211, 59.86718], [30.2583236, 59.8729837], [30.2582089, 59.8738627], [30.2583418, 59.8748765], [30.2589354, 59.8762237], [30.2600839, 59.8775641], [30.2607277, 59.8781975], [30.2613537, 59.8788134], [30.2642441, 59.8820467], [30.2660975, 59.8845055], [30.2695227, 59.8909714], [30.2736754, 59.8987746], [30.2738268, 59.89903], [30.2742393, 59.8996832], [30.2746527, 59.9003376], [30.2755201, 59.9017244], [30.2761907, 59.9023963], [30.2771811, 59.9030459], [30.2782291, 59.9036492], [30.280906, 59.9043324], [30.2868826, 59.9052518], [30.3014352, 59.9073623], [30.3027438, 59.9075743], [30.3038809, 59.9077585], [30.3041118, 59.9077959], [30.307315, 59.9083644], [30.3090262, 59.9087652], [30.3106892, 59.9093192], [30.3117943, 59.9097738], [30.3134358, 59.9106479], [30.3140581, 59.9110351], [30.3147627, 59.9115919], [30.3154635, 59.9123126], [30.3160599, 59.9128993], [30.3164519, 59.9133469], [30.316929, 59.9138916], [30.3175177, 59.9145405], [30.3182455, 59.9153644], [30.3186128, 59.9157748], [30.3191705, 59.916393], [30.3201739, 59.9176073], [30.3204818, 59.9178359], [30.3209205, 59.9180979], [30.3214287, 59.9183558], [30.322088, 59.9186335], [30.3229445, 59.9189354], [30.3239065, 59.9191935], [30.3252378, 59.9195047], [30.3269378, 59.9198723], [30.3314426, 59.9208258], [30.3329644, 59.921178], [30.3340877, 59.9214379], [30.336138, 59.9219766], [30.3383052, 59.9227213], [30.34051, 59.9237026], [30.3425431, 59.9245494], [30.3446017, 59.9252909], [30.3459497, 59.9256282], [30.3474021, 59.925902], [30.3486838, 59.9261423], [30.3509438, 59.9266301], [30.3537356, 59.9272981], [30.3561941, 59.9278831], [30.3577338, 59.9285085], [30.358234, 59.9288935], [30.3586211, 59.9292727], [30.3592137, 59.9299053], [30.3597805, 59.9305107], [30.3601344, 59.930915], [30.3613204, 59.9320087], [30.3629587, 59.9337831], [30.3646123, 59.9357417], [30.3649342, 59.9361556], [30.3651595, 59.9367898], [30.3651273, 59.9372735], [30.3650629, 59.9375637], [30.3645654, 59.938552], [30.3626315, 59.9407896], [30.3613713, 59.9424938], [30.3609965, 59.9431449], [30.3605984, 59.9438365], [30.3600419, 59.9450429], [30.3591996, 59.9474245], [30.3560757, 59.9556943], [30.3557699, 59.9565702], [30.355592, 59.9570331], [30.3555148, 59.9572339], [30.3552608, 59.9578921], [30.3551837, 59.9580699], [30.3548075, 59.9589374], [30.3520244, 59.9626264], [30.3497583, 59.9668836], [30.3495222, 59.9676019], [30.3497322, 59.9693644], [30.3498651, 59.9704803], [30.3501606, 59.9761895], [30.3500211, 59.9773866], [30.3496456, 59.9781784], [30.348916, 59.978938], [30.346663, 59.9805161], [30.345397, 59.9815815], [30.3447372, 59.9821807], [30.344308, 59.9829233], [30.3441793, 59.9835567], [30.344241, 59.9841376], [30.3445267, 59.984681], [30.3449727, 59.9853887], [30.3452148, 59.9857673], [30.3457982, 59.9865231], [30.3466936, 59.9876832], [30.3471299, 59.9881154], [30.3476675, 59.9885278], [30.3482953, 59.9889092], [30.3490004, 59.9892517], [30.3502455, 59.9897856], [30.3514642, 59.9903478], [30.3520763, 59.9907495], [30.3526504, 59.9912906], [30.3530395, 59.9918087], [30.3538361, 59.9934464], [30.3541349, 59.9938496], [30.3545779, 59.9942536], [30.3551513, 59.9946271], [30.3558652, 59.9949647], [30.3574205, 59.995582], [30.3597794, 59.9965182], [30.3604251, 59.9967407], [30.3610882, 59.9969181], [30.3628526, 59.9972764], [30.3637394, 59.9974904], [30.3645649, 59.9977757], [30.3651594, 59.9980504], [30.3656935, 59.9983696], [30.3661272, 59.9987086], [30.3663999, 59.9990472], [30.3667966, 59.9997586], [30.367489, 60.0014812], [30.3678039, 60.0022641], [30.368001, 60.0031077], [30.3682468, 60.0045972], [30.3681419, 60.0055684], [30.3681922, 60.0061329], [30.3683096, 60.0065999], [30.3684859, 60.0068947], [30.3687376, 60.0072011], [30.3692243, 60.0076505], [30.369685, 60.0080084], [30.3708352, 60.0086564], [30.3717372, 60.0090321], [30.3726891, 60.0093236], [30.3743605, 60.0097799], [30.3756742, 60.0101385], [30.3783741, 60.0109183], [30.3796683, 60.0111197], [30.3808928, 60.0112359], [30.3817743, 60.01121], [30.3853255, 60.0109488], [30.3863415, 60.0109005], [30.3872462, 60.0109464], [30.3879719, 60.0110431], [30.3914915, 60.0117831], [30.392802, 60.0120311], [30.3941836, 60.0122926], [30.3949764, 60.0124465], [30.3962528, 60.0126944], [30.3980452, 60.0130424], [30.39897, 60.0132777], [30.3997656, 60.0135405], [30.4005154, 60.013897], [30.4013962, 60.0144061], [30.4018444, 60.014759], [30.4024592, 60.0153985], [30.4028574, 60.0158874], [30.40804, 60.0221873], [30.4164871, 60.0325403], [30.417004, 60.033215], [30.4175546, 60.0339338], [30.4184455, 60.0349978], [30.4193296, 60.0358074], [30.4200829, 60.0362645], [30.4206618, 60.0365505], [30.4226788, 60.0375766], [30.4269758, 60.0397201], [30.4329431, 60.0427173], [30.4372656, 60.0449713], [30.4392471, 60.0462006], [30.4398468, 60.0466577], [30.4403584, 60.0471013], [30.4412536, 60.0481384], [30.4416537, 60.0486613], [30.4419752, 60.0491629], [30.4431604, 60.0509529]]}}]}
