{"type": "FeatureCollection", "features": [{"type": "Feature", "properties": {"lineId": "4", "name": "\u041f\u0440\u0430\u0432\u043e\u0431\u0435\u0440\u0435\u0436\u043d\u0430\u044f \u043b\u0438\u043d\u0438\u044f: \u0423\u043b\u0438\u0446\u0430 \u0414\u044b\u0431\u0435\u043d\u043a\u043e \u2014 \u0413\u043e\u0440\u043d\u044b\u0439 \u0438\u043d\u0441\u0442\u0438\u0442\u0443\u0442", "ref": "4"}, "geometry": {"type": "LineString", "coordinates": [[30.4813412, 59.9095177], [30.4813071, 59.9095471], [30.4810665, 59.9097691], [30.474609, 59.9157266], [30.4733527, 59.9167221], [30.4727086, 59.9171786], [30.4668576, 59.9198862], [30.4648999, 59.9207134], [30.4647841, 59.9207664], [30.4641024, 59.921077], [30.462612, 59.9217565], [30.457894, 59.9241652], [30.4498919, 59.9283928], [30.4485233, 59.9291331], [30.4475075, 59.9296332], [30.4464888, 59.9301293], [30.4457043, 59.9305033], [30.4450842, 59.9307655], [30.4444088, 59.9310001], [30.4438902, 59.931149], [30.4424603, 59.931565], [30.4411286, 59.9319524], [30.4397528, 59.9323563], [30.4386868, 59.9326129], [30.4372007, 59.9328767], [30.4354501, 59.9330814], [30.4342966, 59.9331588], [30.4332073, 59.9331585], [30.4318566, 59.9330306], [30.4306405, 59.9327641], [30.4165809, 59.9299243], [30.4151752, 59.929641], [30.4137605, 59.9293558], [30.4120059, 59.9289995], [30.4101282, 59.9285752], [30.4082251, 59.9279784], [30.3931452, 59.9232662], [30.3916237, 59.9229034], [30.39016, 59.922655], [30.3890055, 59.9225053], [30.3875887, 59.9223803], [30.3864423, 59.9223327], [30.3848523, 59.922271], [30.383328, 59.9222119], [30.3799644, 59.922093], [30.3786135, 59.9220866], [30.3779585, 59.9220787], [30.3757775, 59.9219059], [30.372686, 59.9215743], [30.3712886, 59.9213418], [30.3699751, 59.9210252], [30.3684941, 59.9205846], [30.3679812, 59.9204184], [30.3672289, 59.9202825], [30.3665902, 59.920217], [30.3657014, 59.9201836], [30.3645373, 59.9202606], [30.3635999, 59.9203735], [30.3630498, 59.9204849], [30.3623802, 59.9206205], [30.360726, 59.9211562], [30.3593559, 59.9216378], [30.3578895, 59.9221532], [30.3570007, 59.9225015], [30.3564559, 59.9227822], [30.3556275, 59.9232789], [30.3550133, 59.9237124], [30.3545986, 59.9241214], [30.3536798, 59.9249941], [30.3531701, 59.9253174], [30.3526168, 59.9255967], [30.3516088, 59.926021], [30.3507785, 59.9263061], [30.3494787, 59.9265907], [30.3480012, 59.9267715], [30.345849, 59.9269321], [30.3447551, 59.9270137], [30.3430571, 59.9271484], [30.3416537, 59.927262], [30.3407886, 59.9273063], [30.3399573, 59.9272948], [30.3391276, 59.9272549], [30.3382934, 59.9271844], [30.3377433, 59.9271003], [30.3371612, 59.9269999], [30.336469, 59.9268303], [30.3356947, 59.9265953], [30.3348473, 59.926317], [30.3341321, 59.9260637], [30.3328183, 59.9255691], [30.3316207, 59.9249387], [30.3311144, 59.9247094], [30.3304834, 59.9244889], [30.3296496, 59.9242798], [30.3289008, 59.9241451], [30.32822, 59.9240533], [30.3271039, 59.9239642], [30.3255609, 59.923963], [30.3239327, 59.9240619], [30.3223543, 59.9243013], [30.3214466, 59.9245175], [30.3205731, 59.924794], [30.3200984, 59.9250091], [30.318805, 59.9257144], [30.3168867, 59.9269597], [30.3168147, 59.9270064], [30.3160187, 59.9275703], [30.3158622, 59.9276672], [30.3154649, 59.9278713], [30.3149526, 59.928118], [30.3147528, 59.9282188], [30.3144953, 59.9283485], [30.3138488, 59.9286623], [30.3133231, 59.9289069], [30.3127116, 59.9291461], [30.3120893, 59.9293504], [30.3114188, 59.9295359], [30.3106999, 59.9296891], [30.3101206, 59.9297966], [30.3095037, 59.9298772], [30.308876, 59.9299444], [30.3082001, 59.9299928], [30.3075725, 59.9300089], [30.3070521, 59.9300089], [30.306462, 59.9299767], [30.3061758, 59.9299588], [30.3058183, 59.9299364], [30.3052068, 59.9298638], [30.3049065, 59.9298178], [30.3046274, 59.9297751], [30.3041929, 59.9296945], [30.3036189, 59.9295708], [30.3031468, 59.9294472], [30.3026909, 59.9293155], [30.3022402, 59.9291596], [30.3018057, 59.9289929], [30.3012961, 59.9287698], [30.3008991, 59.9285924], [30.3004861, 59.928415], [30.3000891, 59.9282376], [30.2996921, 59.9280602], [30.2992845, 59.9278828], [30.2988714, 59.9277027], [30.2984691, 59.9275253], [30.2980828, 59.9273505], [30.2974874, 59.9270925], [30.2970689, 59.9269312], [30.296613, 59.9267753], [30.2961785, 59.9266328], [30.2958029, 59.926528], [30.2953899, 59.9264231], [30.2949554, 59.9263237], [30.2945155, 59.9262296], [30.2930376, 59.9259151], [30.2925628, 59.9258156], [30.2920425, 59.9257027], [30.2914415, 59.9255734], [30.2897658, 59.9252133], [30.2876168, 59.924751], [30.287075, 59.9246327], [30.2867103, 59.9245602], [30.2863079, 59.9244795], [30.285809, 59.9243854], [30.2852994, 59.9243128], [30.2847683, 59.9242483], [30.2842319, 59.9241999], [30.2837115, 59.9241623], [30.2831805, 59.9241354], [30.2826118, 59.9241247], [30.2821022, 59.9241273], [30.2815658, 59.9241462], [30.2810401, 59.9241757], [30.2805251, 59.9242187], [30.2799779, 59.9242752], [30.2794904, 59.9243434], [30.2789372, 59.9244284], [30.278433, 59.9245279], [30.2779555, 59.9246327], [30.2772796, 59.9248021], [30.2768022, 59.9249446], [30.2763623, 59.9250871], [30.275917, 59.9252511], [30.275504, 59.9254204], [30.275107, 59.9255978], [30.2748281, 59.9257349], [30.2744901, 59.925907], [30.2741039, 59.9261032], [30.2737284, 59.9262914], [30.2627512, 59.9318479]]}}]}
