{
  "type": "FeatureCollection",
  "features": [
    {
      "type": "Feature",
      "properties": {
        "kind": "track",
        "mode": "metro",
        "lineId": "1",
        "name": "Кировско-Выборгская",
        "color": "#d6083b"
      },
      "geometry": {
        "type": "LineString",
        "coordinates": [
          [
            30.2609211,
            59.86718
          ],
          [
            30.2583236,
            59.8729837
          ],
          [
            30.2582089,
            59.8738627
          ],
          [
            30.2583418,
            59.8748765
          ],
          [
            30.2589354,
            59.8762237
          ],
          [
            30.2600839,
            59.8775641
          ],
          [
            30.2607277,
            59.8781975
          ],
          [
            30.2613537,
            59.8788134
          ],
          [
            30.2642441,
            59.8820467
          ],
          [
            30.2660975,
            59.8845055
          ],
          [
            30.2695227,
            59.8909714
          ],
          [
            30.2736754,
            59.8987746
          ],
          [
            30.2738268,
            59.89903
          ],
          [
            30.2742393,
            59.8996832
          ],
          [
            30.2746527,
            59.9003376
          ],
          [
            30.2755201,
            59.9017244
          ],
          [
            30.2761907,
            59.9023963
          ],
          [
            30.2771811,
            59.9030459
          ],
          [
            30.2782291,
            59.9036492
          ],
          [
            30.280906,
            59.9043324
          ],
          [
            30.2868826,
            59.9052518
          ],
          [
            30.3014352,
            59.9073623
          ],
          [
            30.3027438,
            59.9075743
          ],
          [
            30.3038809,
            59.9077585
          ],
          [
            30.3041118,
            59.9077959
          ],
          [
            30.307315,
            59.9083644
          ],
          [
            30.3090262,
            59.9087652
          ],
          [
            30.3106892,
            59.9093192
          ],
          [
            30.3117943,
            59.9097738
          ],
          [
            30.3134358,
            59.9106479
          ],
          [
            30.3140581,
            59.9110351
          ],
          [
            30.3147627,
            59.9115919
          ],
          [
            30.3154635,
            59.9123126
          ],
          [
            30.3160599,
            59.9128993
          ],
          [
            30.3164519,
            59.9133469
          ],
          [
            30.316929,
            59.9138916
          ],
          [
            30.3175177,
            59.9145405
          ],
          [
            30.3182455,
            59.9153644
          ],
          [
            30.3186128,
            59.9157748
          ],
          [
            30.3191705,
            59.916393
          ],
          [
            30.3201739,
            59.9176073
          ],
          [
            30.3204818,
            59.9178359
          ],
          [
            30.3209205,
            59.9180979
          ],
          [
            30.3214287,
            59.9183558
          ],
          [
            30.322088,
            59.9186335
          ],
          [
            30.3229445,
            59.9189354
          ],
          [
            30.3239065,
            59.9191935
          ],
          [
            30.3252378,
            59.9195047
          ],
          [
            30.3269378,
            59.9198723
          ],
          [
            30.3314426,
            59.9208258
          ],
          [
            30.3329644,
            59.921178
          ],
          [
            30.3340877,
            59.9214379
          ],
          [
            30.336138,
            59.9219766
          ],
          [
            30.3383052,
            59.9227213
          ],
          [
            30.34051,
            59.9237026
          ],
          [
            30.3425431,
            59.9245494
          ],
          [
            30.3446017,
            59.9252909
          ],
          [
            30.3459497,
            59.9256282
          ],
          [
            30.3474021,
            59.925902
          ],
          [
            30.3486838,
            59.9261423
          ],
          [
            30.3509438,
            59.9266301
          ],
          [
            30.3537356,
            59.9272981
          ],
          [
            30.3561941,
            59.9278831
          ],
          [
            30.3577338,
            59.9285085
          ],
          [
            30.358234,
            59.9288935
          ],
          [
            30.3586211,
            59.9292727
          ],
          [
            30.3592137,
            59.9299053
          ],
          [
            30.3597805,
            59.9305107
          ],
          [
            30.3601344,
            59.930915
          ],
          [
            30.3613204,
            59.9320087
          ]
        ]
      }
    },
    {
      "type": "Feature",
      "properties": {
        "kind": "stop",
        "mode": "metro",
        "lineId": "1",
        "name": "Площадь Восстания",
        "color": "#d6083b"
      },
      "geometry": {
        "type": "Point",
        "coordinates": [
          30.3607,
          59.9316
        ]
      }
    },
    {
      "type": "Feature",
      "properties": {
        "kind": "stop",
        "mode": "metro",
        "lineId": "1",
        "name": "Владимирская",
        "color": "#d6083b"
      },
      "geometry": {
        "type": "Point",
        "coordinates": [
          30.3478,
          59.9276
        ]
      }
    },
    {
      "type": "Feature",
      "properties": {
        "kind": "stop",
        "mode": "metro",
        "lineId": "1",
        "name": "Пушкинская",
        "color": "#d6083b"
      },
      "geometry": {
        "type": "Point",
        "coordinates": [
          30.3298,
          59.9206
        ]
      }
    },
    {
      "type": "Feature",
      "properties": {
        "kind": "stop",
        "mode": "metro",
        "lineId": "1",
        "name": "Технологический институт",
        "color": "#d6083b"
      },
      "geometry": {
        "type": "Point",
        "coordinates": [
          30.3186,
          59.9164
        ]
      }
    },
    {
      "type": "Feature",
      "properties": {
        "kind": "stop",
        "mode": "metro",
        "lineId": "1",
        "name": "Балтийская",
        "color": "#d6083b"
      },
      "geometry": {
        "type": "Point",
        "coordinates": [
          30.2997,
          59.9071
        ]
      }
    },
    {
      "type": "Feature",
      "properties": {
        "kind": "stop",
        "mode": "metro",
        "lineId": "1",
        "name": "Нарвская",
        "color": "#d6083b"
      },
      "geometry": {
        "type": "Point",
        "coordinates": [
          30.2749,
          59.9011
        ]
      }
    },
    {
      "type": "Feature",
      "properties": {
        "kind": "stop",
        "mode": "metro",
        "lineId": "1",
        "name": "Кировский завод",
        "color": "#d6083b"
      },
      "geometry": {
        "type": "Point",
        "coordinates": [
          30.2619,
          59.8897
        ]
      }
    },
    {
      "type": "Feature",
      "properties": {
        "kind": "stop",
        "mode": "metro",
        "lineId": "1",
        "name": "Автово",
        "color": "#d6083b"
      },
      "geometry": {
        "type": "Point",
        "coordinates": [
          30.2614,
          59.8673
        ]
      }
    }
  ]
}
