{
  "type": "FeatureCollection",
  "features": [
    {
      "type": "Feature",
      "properties": {
        "kind": "track",
        "mode": "metro",
        "lineId": "1",
        "name": "Кировско-Выборгская",
        "color": "#d6083b"
      },
      "geometry": {
        "type": "LineString",
        "coordinates": [
          [
            30.2609211,
            59.86718
          ],
          [
            30.2583236,
            59.8729837
          ],
          [
            30.2582089,
            59.8738627
          ],
          [
            30.2583418,
            59.8748765
          ],
          [
            30.2589354,
            59.8762237
          ],
          [
            30.2600839,
            59.8775641
          ],
          [
            30.2607277,
            59.8781975
          ],
          [
            30.2613537,
            59.8788134
          ],
          [
            30.2642441,
            59.8820467
          ],
          [
            30.2660975,
            59.8845055
          ],
          [
            30.2695227,
            59.8909714
          ],
          [
            30.2736754,
            59.8987746
          ],
          [
            30.2738268,
            59.89903
          ],
          [
            30.2742393,
            59.8996832
          ],
          [
            30.2746527,
            59.9003376
          ],
          [
            30.2755201,
            59.9017244
          ],
          [
            30.2761907,
            59.9023963
          ],
          [
            30.2771811,
            59.9030459
          ],
          [
            30.2782291,
            59.9036492
          ],
          [
            30.280906,
            59.9043324
          ],
          [
            30.2868826,
            59.9052518
          ],
          [
            30.3014352,
            59.9073623
          ],
          [
            30.3027438,
            59.9075743
          ],
          [
            30.3038809,
            59.9077585
          ],
          [
            30.3041118,
            59.9077959
          ],
          [
            30.307315,
            59.9083644
          ],
          [
            30.3090262,
            59.9087652
          ],
          [
            30.3106892,
            59.9093192
          ],
          [
            30.3117943,
            59.9097738
          ],
          [
            30.3134358,
            59.9106479
          ],
          [
            30.3140581,
            59.9110351
          ],
          [
            30.3147627,
            59.9115919
          ],
          [
            30.3154635,
            59.9123126
          ],
          [
            30.3160599,
            59.9128993
          ],
          [
            30.3164519,
            59.9133469
          ],
          [
            30.316929,
            59.9138916
          ],
          [
            30.3175177,
            59.9145405
          ],
          [
            30.3182455,
            59.9153644
          ],
          [
            30.3186128,
            59.9157748
          ],
          [
            30.3191705,
            59.916393
          ],
          [
            30.3201739,
            59.9176073
          ],
          [
            30.3204818,
            59.9178359
          ],
          [
            30.3209205,
            59.9180979
          ],
          [
            30.3214287,
            59.9183558
          ],
          [
            30.322088,
            59.9186335
          ],
          [
            30.3229445,
            59.9189354
          ],
          [
            30.3239065,
            59.9191935
          ],
          [
            30.3252378,
            59.9195047
          ],
          [
            30.3269378,
            59.9198723
          ],
          [
            30.3314426,
            59.9208258
          ],
          [
            30.3329644,
            59.921178
          ],
          [
            30.3340877,
            59.9214379
          ],
          [
            30.336138,
            59.9219766
          ],
          [
            30.3383052,
            59.9227213
          ],
          [
            30.34051,
            59.9237026
          ],
          [
            30.3425431,
            59.9245494
          ],
          [
            30.3446017,
            59.9252909
          ],
          [
            30.3459497,
            59.9256282
          ],
          [
            30.3474021,
            59.925902
          ],
          [
            30.3486838,
            59.9261423
          ],
          [
            30.3509438,
            59.9266301
          ],
          [
            30.3537356,
            59.9272981
          ],
          [
            30.3561941,
            59.9278831
          ],
          [
            30.3577338,
            59.9285085
          ],
          [
            30.358234,
            59.9288935
          ],
          [
            30.3586211,
            59.9292727
          ],
          [
            30.3592137,
            59.9299053
          ],
          [
            30.3597805,
            59.9305107
          ],
          [
            30.3601344,
            59.930915
          ],
          [
            30.3613204,
            59.9320087
          ],
          [
            30.3629587,
            59.9337831
          ],
          [
            30.3646123,
            59.9357417
          ],
          [
            30.3649342,
            59.9361556
          ],
          [
            30.3651595,
            59.9367898
          ],
          [
            30.3651273,
            59.9372735
          ],
          [
            30.3650629,
            59.9375637
          ],
          [
            30.3645654,
            59.938552
          ],
          [
            30.3626315,
            59.9407896
          ],
          [
            30.3613713,
            59.9424938
          ],
          [
            30.3609965,
            59.9431449
          ],
          [
            30.3605984,
            59.9438365
          ],
          [
            30.3600419,
            59.9450429
          ],
          [
            30.3591996,
            59.9474245
          ],
          [
            30.3560757,
            59.9556943
          ]
        ]
      }
    },
    {
      "type": "Feature",
      "properties": {
        "kind": "stop",
        "mode": "metro",
        "lineId": "1",
        "name": "Площадь Ленина",
        "color": "#d6083b"
      },
      "geometry": {
        "type": "Point",
        "coordinates": [
          30.3561,
          59.9558
        ]
      }
    },
    {
      "type": "Feature",
      "properties": {
        "kind": "stop",
        "mode": "metro",
        "lineId": "1",
        "name": "Чернышевская",
        "color": "#d6083b"
      },
      "geometry": {
        "type": "Point",
        "coordinates": [
          30.36,
          59.9446
        ]
      }
    },
    {
      "type": "Feature",
      "properties": {
        "kind": "stop",
        "mode": "metro",
        "lineId": "1",
        "name": "Площадь Восстания",
        "color": "#d6083b"
      },
      "geometry": {
        "type": "Point",
        "coordinates": [
          30.3607,
          59.9316
        ]
      }
    },
    {
      "type": "Feature",
      "properties": {
        "kind": "stop",
        "mode": "metro",
        "lineId": "1",
        "name": "Владимирская",
        "color": "#d6083b"
      },
      "geometry": {
        "type": "Point",
        "coordinates": [
          30.3478,
          59.9276
        ]
      }
    },
    {
      "type": "Feature",
      "properties": {
        "kind": "stop",
        "mode": "metro",
        "lineId": "1",
        "name": "Пушкинская",
        "color": "#d6083b"
      },
      "geometry": {
        "type": "Point",
        "coordinates": [
          30.3298,
          59.9206
        ]
      }
    },
    {
      "type": "Feature",
      "properties": {
        "kind": "stop",
        "mode": "metro",
        "lineId": "1",
        "name": "Технологический институт",
        "color": "#d6083b"
      },
      "geometry": {
        "type": "Point",
        "coordinates": [
          30.3186,
          59.9164
        ]
      }
    },
    {
      "type": "Feature",
      "properties": {
        "kind": "stop",
        "mode": "metro",
        "lineId": "1",
        "name": "Балтийская",
        "color": "#d6083b"
      },
      "geometry": {
        "type": "Point",
        "coordinates": [
          30.2997,
          59.9071
        ]
      }
    },
    {
      "type": "Feature",
      "properties": {
        "kind": "stop",
        "mode": "metro",
        "lineId": "1",
        "name": "Нарвская",
        "color": "#d6083b"
      },
      "geometry": {
        "type": "Point",
        "coordinates": [
          30.2749,
          59.9011
        ]
      }
    },
    {
      "type": "Feature",
      "properties": {
        "kind": "stop",
        "mode": "metro",
        "lineId": "1",
        "name": "Кировский завод",
        "color": "#d6083b"
      },
      "geometry": {
        "type": "Point",
        "coordinates": [
          30.2619,
          59.8897
        ]
      }
    },
    {
      "type": "Feature",
      "properties": {
        "kind": "stop",
        "mode": "metro",
        "lineId": "1",
        "name": "Автово",
        "color": "#d6083b"
      },
      "geometry": {
        "type": "Point",
        "coordinates": [
          30.2614,
          59.8673
        ]
      }
    },
    {
      "type": "Feature",
      "properties": {
        "kind": "track",
        "mode": "metro",
        "lineId": "2",
        "name": "Московско-Петроградская",
        "color": "#0078c9"
      },
      "geometry": {
        "type": "LineString",
        "coordinates": [
          [
            30.3114322,
            59.9664336
          ],
          [
            30.3118403,
            59.9660069
          ],
          [
            30.3127204,
            59.9648929
          ],
          [
            30.3131681,
            59.9643262
          ],
          [
            30.3138753,
            59.9632134
          ],
          [
            30.3169047,
            59.9589839
          ],
          [
            30.3174006,
            59.9581964
          ],
          [
            30.3183993,
            59.9564035
          ],
          [
            30.3188948,
            59.9556858
          ],
          [
            30.3192785,
            59.9551252
          ],
          [
            30.3196712,
            59.9545515
          ],
          [
            30.3207182,
            59.9530332
          ],
          [
            30.3212185,
            59.9521583
          ],
          [
            30.3219692,
            59.9503811
          ],
          [
            30.325324,
            59.9438343
          ],
          [
            30.3260595,
            59.9423828
          ],
          [
            30.3276075,
            59.939387
          ],
          [
            30.3280536,
            59.9383419
          ],
          [
            30.3285461,
            59.9372847
          ],
          [
            30.3286574,
            59.9370606
          ],
          [
            30.3287324,
            59.9368279
          ],
          [
            30.3287685,
            59.9365675
          ],
          [
            30.3287777,
            59.9361614
          ],
          [
            30.3287495,
            59.9356329
          ],
          [
            30.3287167,
            59.9353186
          ],
          [
            30.3286004,
            59.9348213
          ],
          [
            30.3285479,
            59.9346857
          ],
          [
            30.3283851,
            59.9343847
          ],
          [
            30.3281882,
            59.9339823
          ],
          [
            30.3278079,
            59.9332052
          ],
          [
            30.3275577,
            59.9327629
          ],
          [
            30.3272204,
            59.9322734
          ],
          [
            30.3267708,
            59.9317512
          ],
          [
            30.3265361,
            59.931515
          ],
          [
            30.3262599,
            59.9312749
          ],
          [
            30.3260133,
            59.9310841
          ],
          [
            30.3257112,
            59.9308825
          ],
          [
            30.3245512,
            59.9302484
          ],
          [
            30.3230577,
            59.9296347
          ],
          [
            30.3225283,
            59.9293966
          ],
          [
            30.3222016,
            59.9292243
          ],
          [
            30.321938,
            59.9290523
          ],
          [
            30.3215068,
            59.928694
          ],
          [
            30.3211143,
            59.9283618
          ],
          [
            30.3208926,
            59.9281355
          ],
          [
            30.3206643,
            59.9278881
          ],
          [
            30.3204042,
            59.9274715
          ],
          [
            30.3202017,
            59.9269978
          ],
          [
            30.3199134,
            59.9261352
          ],
          [
            30.3197412,
            59.9255977
          ],
          [
            30.3196628,
            59.9249977
          ],
          [
            30.3196793,
            59.9244009
          ],
          [
            30.3198391,
            59.9238607
          ],
          [
            30.3202071,
            59.9229948
          ],
          [
            30.3210669,
            59.9207389
          ],
          [
            30.321135,
            59.9201349
          ],
          [
            30.3210879,
            59.9196675
          ],
          [
            30.320894,
            59.9191161
          ],
          [
            30.3206435,
            59.9185924
          ],
          [
            30.3202111,
            59.9179813
          ],
          [
            30.3191813,
            59.9169337
          ],
          [
            30.3189859,
            59.9167409
          ],
          [
            30.3180055,
            59.9157821
          ],
          [
            30.3174801,
            59.9151857
          ],
          [
            30.3169044,
            59.9145319
          ],
          [
            30.3167312,
            59.9143361
          ],
          [
            30.3165185,
            59.9141054
          ],
          [
            30.3163114,
            59.9138843
          ],
          [
            30.3159532,
            59.9134979
          ],
          [
            30.3154678,
            59.9129164
          ],
          [
            30.3152338,
            59.9126073
          ],
          [
            30.3150036,
            59.9123007
          ],
          [
            30.3147666,
            59.9119522
          ],
          [
            30.3145759,
            59.9115994
          ],
          [
            30.3144311,
            59.9111997
          ],
          [
            30.3144633,
            59.910612
          ],
          [
            30.3147263,
            59.9097391
          ],
          [
            30.3150069,
            59.9092701
          ],
          [
            30.3159441,
            59.9080802
          ],
          [
            30.3161919,
            59.9077635
          ],
          [
            30.3173106,
            59.906185
          ],
          [
            30.3174372,
            59.9060019
          ],
          [
            30.3175312,
            59.9058311
          ],
          [
            30.3180487,
            59.9047788
          ],
          [
            30.3182214,
            59.9042586
          ],
          [
            30.3183514,
            59.9037206
          ],
          [
            30.3184602,
            59.902502
          ],
          [
            30.3185641,
            59.8962211
          ],
          [
            30.3184684,
            59.8952807
          ],
          [
            30.3179759,
            59.8931501
          ],
          [
            30.3178656,
            59.8926611
          ],
          [
            30.3177334,
            59.892075
          ],
          [
            30.317461,
            59.8909638
          ],
          [
            30.3173738,
            59.890377
          ],
          [
            30.3173787,
            59.8899868
          ],
          [
            30.3174382,
            59.8895942
          ],
          [
            30.3176314,
            59.8889133
          ],
          [
            30.3178543,
            59.8882224
          ],
          [
            30.3182505,
            59.8873302
          ],
          [
            30.3189969,
            59.8855213
          ],
          [
            30.3196475,
            59.8840049
          ],
          [
            30.319697,
            59.8836171
          ],
          [
            30.3196747,
            59.8832095
          ],
          [
            30.3195583,
            59.8824365
          ],
          [
            30.3193998,
            59.8815901
          ],
          [
            30.3191305,
            59.880795
          ],
          [
            30.3188996,
            59.8802786
          ],
          [
            30.3185086,
            59.879404
          ],
          [
            30.3183249,
            59.8789888
          ],
          [
            30.3182109,
            59.8785662
          ],
          [
            30.3181961,
            59.8780268
          ],
          [
            30.3182382,
            59.8774836
          ],
          [
            30.3184759,
            59.8767304
          ],
          [
            30.3202189,
            59.8706478
          ],
          [
            30.3206101,
            59.8696309
          ],
          [
            30.3211092,
            59.8685854
          ],
          [
            30.3213632,
            59.8676089
          ],
          [
            30.3215228,
            59.8670093
          ],
          [
            30.3216317,
            59.8665589
          ],
          [
            30.3216784,
            59.8663765
          ]
        ]
      }
    },
    {
      "type": "Feature",
      "properties": {
        "kind": "stop",
        "mode": "metro",
        "lineId": "2",
        "name": "Петроградская",
        "color": "#0078c9"
      },
      "geometry": {
        "type": "Point",
        "coordinates": [
          30.3115,
          59.9663
        ]
      }
    },
    {
      "type": "Feature",
      "properties": {
        "kind": "stop",
        "mode": "metro",
        "lineId": "2",
        "name": "Горьковская",
        "color": "#0078c9"
      },
      "geometry": {
        "type": "Point",
        "coordinates": [
          30.3189,
          59.9563
        ]
      }
    },
    {
      "type": "Feature",
      "properties": {
        "kind": "stop",
        "mode": "metro",
        "lineId": "2",
        "name": "Невский проспект",
        "color": "#0078c9"
      },
      "geometry": {
        "type": "Point",
        "coordinates": [
          30.3301,
          59.9354
        ]
      }
    },
    {
      "type": "Feature",
      "properties": {
        "kind": "stop",
        "mode": "metro",
        "lineId": "2",
        "name": "Сенная площадь",
        "color": "#0078c9"
      },
      "geometry": {
        "type": "Point",
        "coordinates": [
          30.3203,
          59.927
        ]
      }
    },
    {
      "type": "Feature",
      "properties": {
        "kind": "stop",
        "mode": "metro",
        "lineId": "2",
        "name": "Технологический институт",
        "color": "#0078c9"
      },
      "geometry": {
        "type": "Point",
        "coordinates": [
          30.3186,
          59.9164
        ]
      }
    },
    {
      "type": "Feature",
      "properties": {
        "kind": "stop",
        "mode": "metro",
        "lineId": "2",
        "name": "Фрунзенская",
        "color": "#0078c9"
      },
      "geometry": {
        "type": "Point",
        "coordinates": [
          30.3174,
          59.9062
        ]
      }
    },
    {
      "type": "Feature",
      "properties": {
        "kind": "stop",
        "mode": "metro",
        "lineId": "2",
        "name": "Московские ворота",
        "color": "#0078c9"
      },
      "geometry": {
        "type": "Point",
        "coordinates": [
          30.3178,
          59.8917
        ]
      }
    },
    {
      "type": "Feature",
      "properties": {
        "kind": "stop",
        "mode": "metro",
        "lineId": "2",
        "name": "Электросила",
        "color": "#0078c9"
      },
      "geometry": {
        "type": "Point",
        "coordinates": [
          30.3186,
          59.8792
        ]
      }
    },
    {
      "type": "Feature",
      "properties": {
        "kind": "stop",
        "mode": "metro",
        "lineId": "2",
        "name": "Парк Победы",
        "color": "#0078c9"
      },
      "geometry": {
        "type": "Point",
        "coordinates": [
          30.3217,
          59.8664
        ]
      }
    }
  ]
}
