{"type": "FeatureCollection", "features": [{"type": "Feature", "properties": {"kind": "track", "mode": "tram", "lineId": "tm-1", "name": "Главный штаб — 8-я линия", "color": "#c45c26"}, "geometry": {"coordinates": [[30.316553, 59.937431], [30.316553, 59.937431], [30.316617, 59.937436], [30.316828, 59.937445], [30.31718, 59.93746], [30.317467, 59.937459], [30.317503, 59.937459], [30.317475, 59.936865], [30.317462, 59.936573], [30.317448, 59.936542], [30.317384, 59.93655], [30.316313, 59.936674], [30.315467, 59.936772], [30.315348, 59.936786], [30.314863, 59.936843], [30.314838, 59.936789], [30.314801, 59.936709], [30.314778, 59.936662], [30.313579, 59.936802], [30.313439, 59.936819], [30.312773, 59.936897], [30.312557, 59.936923], [30.311986, 59.93699], [30.311941, 59.936993], [30.311896, 59.936994], [30.311851, 59.936992], [30.311806, 59.936988], [30.311764, 59.93698], [30.311723, 59.93697], [30.311686, 59.936957], [30.311633, 59.936937], [30.311589, 59.936965], [30.311567, 59.93698], [30.311529, 59.937005], [30.311409, 59.937083], [30.311365, 59.937111], [30.311344, 59.937126], [30.309953, 59.93659], [30.30974, 59.936731], [30.309704, 59.936718], [30.309651, 59.936704], [30.309595, 59.936695], [30.309537, 59.936691], [30.3095, 59.93669], [30.309389, 59.936571], [30.309269, 59.936511], [30.309126, 59.936459], [30.308954, 59.936415], [30.308773, 59.936395], [30.308557, 59.9364], [30.308523, 59.936496], [30.308511, 59.936504], [30.308523, 59.936496], [30.308557, 59.9364], [30.308501, 59.936321], [30.308416, 59.936248], [30.308278, 59.936176], [30.308112, 59.936113], [30.307942, 59.936085], [30.307802, 59.936089], [30.307785, 59.936034], [30.307734, 59.93599], [30.307643, 59.935949], [30.307879, 59.935791], [30.306703, 59.935339], [30.306609, 59.935302], [30.306557, 59.935283], [30.305959, 59.935052], [30.305191, 59.934753], [30.304974, 59.934889], [30.304882, 59.934851], [30.304974, 59.934889], [30.305191, 59.934753], [30.30464, 59.934543], [30.304662, 59.934529], [30.304711, 59.934495], [30.304832, 59.934412], [30.305014, 59.934288], [30.305044, 59.934269], [30.304993, 59.934247], [30.304944, 59.934215], [30.304908, 59.934177], [30.304893, 59.934132], [30.30484, 59.93413], [30.304769, 59.934125], [30.304708, 59.934121], [30.304574, 59.934072], [30.304398, 59.934008], [30.304262, 59.933959], [30.304119, 59.933912], [30.304052, 59.933963], [30.303981, 59.934017], [30.303881, 59.934092], [30.30385, 59.934117], [30.303855, 59.934129], [30.303852, 59.934143], [30.303841, 59.934156], [30.303812, 59.93418], [30.303623, 59.934334], [30.303483, 59.934447], [30.30346, 59.934458], [30.303432, 59.934462], [30.303399, 59.934462], [30.303363, 59.934458], [30.30326, 59.934427], [30.30325, 59.934435], [30.303221, 59.934459], [30.30316, 59.93451], [30.303109, 59.934553], [30.303095, 59.934564], [30.303098, 59.934579], [30.303022, 59.934646], [30.302943, 59.934713], [30.30291, 59.934724], [30.302894, 59.934737], [30.302845, 59.934778], [30.30278, 59.934833], [30.302734, 59.934871], [30.302156, 59.9347], [30.301637, 59.934546], [30.30089, 59.934324], [30.300481, 59.934203], [30.300377, 59.934172], [30.299805, 59.934002], [30.299677, 59.933962], [30.299336, 59.933861], [30.299169, 59.933812], [30.29914, 59.933803], [30.29887, 59.933724], [30.298514, 59.933618], [30.29697, 59.933158], [30.296562, 59.933492], [30.296182, 59.933814], [30.296107, 59.93385], [30.296031, 59.933886], [30.295249, 59.934508], [30.295213, 59.934496], [30.295172, 59.934482], [30.295113, 59.934462], [30.294447, 59.934239], [30.291609, 59.933375], [30.291447, 59.933325], [30.29141, 59.933307], [30.291394, 59.933288], [30.291394, 59.933288], [30.291387, 59.933267], [30.291414, 59.93321], [30.291226, 59.933185], [30.290963, 59.933149], [30.290813, 59.933128], [30.290799, 59.933152], [30.290786, 59.933162], [30.290762, 59.933167], [30.290734, 59.933166], [30.290631, 59.933142], [30.287064, 59.93231], [30.287023, 59.932352], [30.28699, 59.932386], [30.286977, 59.932399], [30.286972, 59.932404], [30.286947, 59.932429], [30.286789, 59.932393], [30.286783, 59.932399], [30.286779, 59.932404], [30.286745, 59.93244], [30.286645, 59.932582], [30.286645, 59.932582], [30.286745, 59.93244], [30.286779, 59.932404], [30.286783, 59.932399], [30.286789, 59.932393], [30.286947, 59.932429], [30.289368, 59.932995], [30.289492, 59.933025], [30.290528, 59.933268], [30.290566, 59.933278], [30.290611, 59.933295], [30.290627, 59.933314], [30.290631, 59.933338], [30.290625, 59.93337], [30.288042, 59.936058], [30.287916, 59.936128], [30.287855, 59.936144], [30.287785, 59.936145], [30.287716, 59.936134], [30.286702, 59.935929], [30.286529, 59.935901], [30.28634, 59.935885], [30.286162, 59.935883], [30.285987, 59.935893], [30.285828, 59.935915], [30.285691, 59.935938], [30.285521, 59.935985], [30.284699, 59.935791], [30.283626, 59.93554], [30.282659, 59.935299], [30.282182, 59.935174], [30.282442, 59.935242], [30.281779, 59.935068], [30.28121, 59.9349], [30.281032, 59.934967], [30.280916, 59.935016], [30.280866, 59.93506], [30.28078, 59.935133], [30.280711, 59.935196], [30.280779, 59.935216], [30.28019, 59.93573], [30.279858, 59.936019], [30.27948, 59.936349], [30.279089, 59.93669], [30.278819, 59.936925], [30.278287, 59.937389], [30.278278, 59.937397], [30.278257, 59.937415], [30.278227, 59.937441], [30.278207, 59.937458], [30.278064, 59.937577], [30.278034, 59.937602], [30.277979, 59.937648], [30.277906, 59.937708], [30.277847, 59.937756], [30.277805, 59.937792], [30.277622, 59.937953], [30.277602, 59.93797], [30.277571, 59.937996], [30.277552, 59.938012], [30.27763, 59.938045], [30.277708, 59.938067], [30.277809, 59.938095], [30.277898, 59.938121], [30.27787, 59.938151], [30.277643, 59.938346], [30.277473, 59.938492], [30.277409, 59.938547], [30.277069, 59.938839], [30.27699, 59.938906], [30.276488, 59.939338], [30.276335, 59.939468], [30.276032, 59.939729], [30.275669, 59.940041], [30.275484, 59.9402], [30.275447, 59.940232], [30.275362, 59.940305], [30.274834, 59.940758], [30.274578, 59.940978], [30.274369, 59.941157], [30.273853, 59.941599], [30.273828, 59.94162], [30.273793, 59.941647], [30.273756, 59.941677], [30.27372, 59.941705], [30.273676, 59.94174], [30.273616, 59.941788], [30.273605, 59.941798], [30.273587, 59.941812], [30.273523, 59.941793], [30.273427, 59.941766], [30.273313, 59.941732], [30.273238, 59.941711], [30.273037, 59.941887], [30.2727, 59.942184], [30.27256, 59.942308], [30.272414, 59.942437], [30.272215, 59.942612], [30.272126, 59.942691], [30.272277, 59.942737]], "type": "LineString"}}, {"type": "Feature", "properties": {"kind": "stop", "mode": "tram", "lineId": "tm-1", "name": "Главный штаб", "color": "#c45c26"}, "geometry": {"type": "Point", "coordinates": [30.316, 59.9376]}}, {"type": "Feature", "properties": {"kind": "stop", "mode": "tram", "lineId": "tm-1", "name": "Конногвардейский бульвар", "color": "#c45c26"}, "geometry": {"type": "Point", "coordinates": [30.3008, 59.9344]}}, {"type": "Feature", "properties": {"kind": "stop", "mode": "tram", "lineId": "tm-1", "name": "Николаевский мост", "color": "#c45c26"}, "geometry": {"type": "Point", "coordinates": [30.2828, 59.9349]}}, {"type": "Feature", "properties": {"kind": "stop", "mode": "tram", "lineId": "tm-1", "name": "8-я линия / Большой проспект", "color": "#c45c26"}, "geometry": {"type": "Point", "coordinates": [30.2722, 59.9428]}}]}
