{
  "type": "FeatureCollection",
  "features": [
    {
      "type": "Feature",
      "properties": {
        "kind": "track",
        "mode": "metro",
        "lineId": "1",
        "name": "Кировско-Выборгская",
        "color": "#d6083b"
      },
      "geometry": {
        "type": "LineString",
        "coordinates": [
          [
            30.2536031,
            59.8418264
          ],
          [
            30.2551853,
            59.8418241
          ],
          [
            30.256659,
            59.8418845
          ],
          [
            30.259272,
            59.8422422
          ],
          [
            30.2622796,
            59.8427842
          ],
          [
            30.2632781,
            59.843079
          ],
          [
            30.2643348,
            59.8435535
          ],
          [
            30.2672656,
            59.8452315
          ],
          [
            30.2678941,
            59.8457431
          ],
          [
            30.2681201,
            59.8460339
          ],
          [
            30.2683332,
            59.8466086
          ],
          [
            30.2685539,
            59.8498503
          ],
          [
            30.268558,
            59.8506473
          ],
          [
            30.2685595,
            59.8514622
          ],
          [
            30.2684544,
            59.8562311
          ],
          [
            30.2681121,
            59.8570635
          ],
          [
            30.2677262,
            59.8576124
          ],
          [
            30.2670161,
            59.8580615
          ],
          [
            30.2641468,
            59.8597039
          ],
          [
            30.2634609,
            59.8603855
          ],
          [
            30.2615136,
            59.8656994
          ],
          [
            30.2611933,
            59.8664998
          ],
          [
            30.2609211,
            59.86718
          ],
          [
            30.2583236,
            59.8729837
          ],
          [
            30.2582089,
            59.8738627
          ],
          [
            30.2583418,
            59.8748765
          ],
          [
            30.2589354,
            59.8762237
          ],
          [
            30.2600839,
            59.8775641
          ],
          [
            30.2607277,
            59.8781975
          ],
          [
            30.2613537,
            59.8788134
          ],
          [
            30.2642441,
            59.8820467
          ],
          [
            30.2660975,
            59.8845055
          ],
          [
            30.2695227,
            59.8909714
          ],
          [
            30.2736754,
            59.8987746
          ],
          [
            30.2738268,
            59.89903
          ],
          [
            30.2742393,
            59.8996832
          ],
          [
            30.2746527,
            59.9003376
          ],
          [
            30.2755201,
            59.9017244
          ],
          [
            30.2761907,
            59.9023963
          ],
          [
            30.2771811,
            59.9030459
          ],
          [
            30.2782291,
            59.9036492
          ],
          [
            30.280906,
            59.9043324
          ],
          [
            30.2868826,
            59.9052518
          ],
          [
            30.3014352,
            59.9073623
          ],
          [
            30.3027438,
            59.9075743
          ],
          [
            30.3038809,
            59.9077585
          ],
          [
            30.3041118,
            59.9077959
          ],
          [
            30.307315,
            59.9083644
          ],
          [
            30.3090262,
            59.9087652
          ],
          [
            30.3106892,
            59.9093192
          ],
          [
            30.3117943,
            59.9097738
          ],
          [
            30.3134358,
            59.9106479
          ],
          [
            30.3140581,
            59.9110351
          ],
          [
            30.3147627,
            59.9115919
          ],
          [
            30.3154635,
            59.9123126
          ],
          [
            30.3160599,
            59.9128993
          ],
          [
            30.3164519,
            59.9133469
          ],
          [
            30.316929,
            59.9138916
          ],
          [
            30.3175177,
            59.9145405
          ],
          [
            30.3182455,
            59.9153644
          ],
          [
            30.3186128,
            59.9157748
          ],
          [
            30.3191705,
            59.916393
          ],
          [
            30.3201739,
            59.9176073
          ],
          [
            30.3204818,
            59.9178359
          ],
          [
            30.3209205,
            59.9180979
          ],
          [
            30.3214287,
            59.9183558
          ],
          [
            30.322088,
            59.9186335
          ],
          [
            30.3229445,
            59.9189354
          ],
          [
            30.3239065,
            59.9191935
          ],
          [
            30.3252378,
            59.9195047
          ],
          [
            30.3269378,
            59.9198723
          ],
          [
            30.3314426,
            59.9208258
          ],
          [
            30.3329644,
            59.921178
          ],
          [
            30.3340877,
            59.9214379
          ],
          [
            30.336138,
            59.9219766
          ],
          [
            30.3383052,
            59.9227213
          ],
          [
            30.34051,
            59.9237026
          ],
          [
            30.3425431,
            59.9245494
          ],
          [
            30.3446017,
            59.9252909
          ],
          [
            30.3459497,
            59.9256282
          ],
          [
            30.3474021,
            59.925902
          ],
          [
            30.3486838,
            59.9261423
          ],
          [
            30.3509438,
            59.9266301
          ],
          [
            30.3537356,
            59.9272981
          ],
          [
            30.3561941,
            59.9278831
          ],
          [
            30.3577338,
            59.9285085
          ],
          [
            30.358234,
            59.9288935
          ],
          [
            30.3586211,
            59.9292727
          ],
          [
            30.3592137,
            59.9299053
          ],
          [
            30.3597805,
            59.9305107
          ],
          [
            30.3601344,
            59.930915
          ],
          [
            30.3613204,
            59.9320087
          ],
          [
            30.3629587,
            59.9337831
          ],
          [
            30.3646123,
            59.9357417
          ],
          [
            30.3649342,
            59.9361556
          ],
          [
            30.3651595,
            59.9367898
          ],
          [
            30.3651273,
            59.9372735
          ],
          [
            30.3650629,
            59.9375637
          ],
          [
            30.3645654,
            59.938552
          ],
          [
            30.3626315,
            59.9407896
          ],
          [
            30.3613713,
            59.9424938
          ],
          [
            30.3609965,
            59.9431449
          ],
          [
            30.3605984,
            59.9438365
          ],
          [
            30.3600419,
            59.9450429
          ],
          [
            30.3591996,
            59.9474245
          ],
          [
            30.3560757,
            59.9556943
          ],
          [
            30.3557699,
            59.9565702
          ],
          [
            30.355592,
            59.9570331
          ],
          [
            30.3555148,
            59.9572339
          ],
          [
            30.3552608,
            59.9578921
          ],
          [
            30.3551837,
            59.9580699
          ],
          [
            30.3548075,
            59.9589374
          ],
          [
            30.3520244,
            59.9626264
          ],
          [
            30.3497583,
            59.9668836
          ],
          [
            30.3495222,
            59.9676019
          ],
          [
            30.3497322,
            59.9693644
          ],
          [
            30.3498651,
            59.9704803
          ],
          [
            30.3501606,
            59.9761895
          ],
          [
            30.3500211,
            59.9773866
          ],
          [
            30.3496456,
            59.9781784
          ],
          [
            30.348916,
            59.978938
          ],
          [
            30.346663,
            59.9805161
          ],
          [
            30.345397,
            59.9815815
          ],
          [
            30.3447372,
            59.9821807
          ],
          [
            30.344308,
            59.9829233
          ],
          [
            30.3441793,
            59.9835567
          ],
          [
            30.344241,
            59.9841376
          ],
          [
            30.3445267,
            59.984681
          ],
          [
            30.3449727,
            59.9853887
          ],
          [
            30.3452148,
            59.9857673
          ],
          [
            30.3457982,
            59.9865231
          ],
          [
            30.3466936,
            59.9876832
          ],
          [
            30.3471299,
            59.9881154
          ],
          [
            30.3476675,
            59.9885278
          ],
          [
            30.3482953,
            59.9889092
          ],
          [
            30.3490004,
            59.9892517
          ],
          [
            30.3502455,
            59.9897856
          ],
          [
            30.3514642,
            59.9903478
          ],
          [
            30.3520763,
            59.9907495
          ],
          [
            30.3526504,
            59.9912906
          ],
          [
            30.3530395,
            59.9918087
          ],
          [
            30.3538361,
            59.9934464
          ],
          [
            30.3541349,
            59.9938496
          ],
          [
            30.3545779,
            59.9942536
          ],
          [
            30.3551513,
            59.9946271
          ],
          [
            30.3558652,
            59.9949647
          ],
          [
            30.3574205,
            59.995582
          ],
          [
            30.3597794,
            59.9965182
          ],
          [
            30.3604251,
            59.9967407
          ],
          [
            30.3610882,
            59.9969181
          ],
          [
            30.3628526,
            59.9972764
          ],
          [
            30.3637394,
            59.9974904
          ],
          [
            30.3645649,
            59.9977757
          ],
          [
            30.3651594,
            59.9980504
          ],
          [
            30.3656935,
            59.9983696
          ],
          [
            30.3661272,
            59.9987086
          ],
          [
            30.3663999,
            59.9990472
          ],
          [
            30.3667966,
            59.9997586
          ],
          [
            30.367489,
            60.0014812
          ],
          [
            30.3678039,
            60.0022641
          ],
          [
            30.368001,
            60.0031077
          ],
          [
            30.3682468,
            60.0045972
          ],
          [
            30.3681419,
            60.0055684
          ],
          [
            30.3681922,
            60.0061329
          ],
          [
            30.3683096,
            60.0065999
          ],
          [
            30.3684859,
            60.0068947
          ],
          [
            30.3687376,
            60.0072011
          ],
          [
            30.3692243,
            60.0076505
          ],
          [
            30.369685,
            60.0080084
          ],
          [
            30.3708352,
            60.0086564
          ],
          [
            30.3717372,
            60.0090321
          ],
          [
            30.3726891,
            60.0093236
          ],
          [
            30.3743605,
            60.0097799
          ],
          [
            30.3756742,
            60.0101385
          ],
          [
            30.3783741,
            60.0109183
          ],
          [
            30.3796683,
            60.0111197
          ],
          [
            30.3808928,
            60.0112359
          ],
          [
            30.3817743,
            60.01121
          ],
          [
            30.3853255,
            60.0109488
          ],
          [
            30.3863415,
            60.0109005
          ],
          [
            30.3872462,
            60.0109464
          ],
          [
            30.3879719,
            60.0110431
          ],
          [
            30.3914915,
            60.0117831
          ],
          [
            30.392802,
            60.0120311
          ],
          [
            30.3941836,
            60.0122926
          ],
          [
            30.3949764,
            60.0124465
          ],
          [
            30.3962528,
            60.0126944
          ],
          [
            30.3980452,
            60.0130424
          ],
          [
            30.39897,
            60.0132777
          ],
          [
            30.3997656,
            60.0135405
          ],
          [
            30.4005154,
            60.013897
          ],
          [
            30.4013962,
            60.0144061
          ],
          [
            30.4018444,
            60.014759
          ],
          [
            30.4024592,
            60.0153985
          ],
          [
            30.4028574,
            60.0158874
          ],
          [
            30.40804,
            60.0221873
          ],
          [
            30.4164871,
            60.0325403
          ],
          [
            30.417004,
            60.033215
          ],
          [
            30.4175546,
            60.0339338
          ],
          [
            30.4184455,
            60.0349978
          ],
          [
            30.4193296,
            60.0358074
          ],
          [
            30.4200829,
            60.0362645
          ],
          [
            30.4206618,
            60.0365505
          ],
          [
            30.4226788,
            60.0375766
          ],
          [
            30.4269758,
            60.0397201
          ],
          [
            30.4329431,
            60.0427173
          ],
          [
            30.4372656,
            60.0449713
          ],
          [
            30.4392471,
            60.0462006
          ],
          [
            30.4398468,
            60.0466577
          ],
          [
            30.4403584,
            60.0471013
          ],
          [
            30.4412536,
            60.0481384
          ],
          [
            30.4416537,
            60.0486613
          ],
          [
            30.4419752,
            60.0491629
          ],
          [
            30.4431604,
            60.0509529
          ]
        ]
      }
    },
    {
      "type": "Feature",
      "properties": {
        "kind": "stop",
        "mode": "metro",
        "lineId": "1",
        "name": "Девяткино",
        "color": "#d6083b"
      },
      "geometry": {
        "type": "Point",
        "coordinates": [
          30.4423,
          60.0504
        ]
      }
    },
    {
      "type": "Feature",
      "properties": {
        "kind": "stop",
        "mode": "metro",
        "lineId": "1",
        "name": "Гражданский проспект",
        "color": "#d6083b"
      },
      "geometry": {
        "type": "Point",
        "coordinates": [
          30.4184,
          60.0351
        ]
      }
    },
    {
      "type": "Feature",
      "properties": {
        "kind": "stop",
        "mode": "metro",
        "lineId": "1",
        "name": "Академическая",
        "color": "#d6083b"
      },
      "geometry": {
        "type": "Point",
        "coordinates": [
          30.3961,
          60.0128
        ]
      }
    },
    {
      "type": "Feature",
      "properties": {
        "kind": "stop",
        "mode": "metro",
        "lineId": "1",
        "name": "Политехническая",
        "color": "#d6083b"
      },
      "geometry": {
        "type": "Point",
        "coordinates": [
          30.3708,
          60.0088
        ]
      }
    },
    {
      "type": "Feature",
      "properties": {
        "kind": "stop",
        "mode": "metro",
        "lineId": "1",
        "name": "Площадь Мужества",
        "color": "#d6083b"
      },
      "geometry": {
        "type": "Point",
        "coordinates": [
          30.3661,
          59.9998
        ]
      }
    },
    {
      "type": "Feature",
      "properties": {
        "kind": "stop",
        "mode": "metro",
        "lineId": "1",
        "name": "Лесная",
        "color": "#d6083b"
      },
      "geometry": {
        "type": "Point",
        "coordinates": [
          30.3442,
          59.9848
        ]
      }
    },
    {
      "type": "Feature",
      "properties": {
        "kind": "stop",
        "mode": "metro",
        "lineId": "1",
        "name": "Выборгская",
        "color": "#d6083b"
      },
      "geometry": {
        "type": "Point",
        "coordinates": [
          30.3474,
          59.9712
        ]
      }
    },
    {
      "type": "Feature",
      "properties": {
        "kind": "stop",
        "mode": "metro",
        "lineId": "1",
        "name": "Площадь Ленина",
        "color": "#d6083b"
      },
      "geometry": {
        "type": "Point",
        "coordinates": [
          30.3561,
          59.9558
        ]
      }
    },
    {
      "type": "Feature",
      "properties": {
        "kind": "stop",
        "mode": "metro",
        "lineId": "1",
        "name": "Чернышевская",
        "color": "#d6083b"
      },
      "geometry": {
        "type": "Point",
        "coordinates": [
          30.36,
          59.9446
        ]
      }
    },
    {
      "type": "Feature",
      "properties": {
        "kind": "stop",
        "mode": "metro",
        "lineId": "1",
        "name": "Площадь Восстания",
        "color": "#d6083b"
      },
      "geometry": {
        "type": "Point",
        "coordinates": [
          30.3607,
          59.9316
        ]
      }
    },
    {
      "type": "Feature",
      "properties": {
        "kind": "stop",
        "mode": "metro",
        "lineId": "1",
        "name": "Владимирская",
        "color": "#d6083b"
      },
      "geometry": {
        "type": "Point",
        "coordinates": [
          30.3478,
          59.9276
        ]
      }
    },
    {
      "type": "Feature",
      "properties": {
        "kind": "stop",
        "mode": "metro",
        "lineId": "1",
        "name": "Пушкинская",
        "color": "#d6083b"
      },
      "geometry": {
        "type": "Point",
        "coordinates": [
          30.3298,
          59.9206
        ]
      }
    },
    {
      "type": "Feature",
      "properties": {
        "kind": "stop",
        "mode": "metro",
        "lineId": "1",
        "name": "Технологический институт",
        "color": "#d6083b"
      },
      "geometry": {
        "type": "Point",
        "coordinates": [
          30.3186,
          59.9164
        ]
      }
    },
    {
      "type": "Feature",
      "properties": {
        "kind": "stop",
        "mode": "metro",
        "lineId": "1",
        "name": "Балтийская",
        "color": "#d6083b"
      },
      "geometry": {
        "type": "Point",
        "coordinates": [
          30.2997,
          59.9071
        ]
      }
    },
    {
      "type": "Feature",
      "properties": {
        "kind": "stop",
        "mode": "metro",
        "lineId": "1",
        "name": "Нарвская",
        "color": "#d6083b"
      },
      "geometry": {
        "type": "Point",
        "coordinates": [
          30.2749,
          59.9011
        ]
      }
    },
    {
      "type": "Feature",
      "properties": {
        "kind": "stop",
        "mode": "metro",
        "lineId": "1",
        "name": "Кировский завод",
        "color": "#d6083b"
      },
      "geometry": {
        "type": "Point",
        "coordinates": [
          30.2619,
          59.8897
        ]
      }
    },
    {
      "type": "Feature",
      "properties": {
        "kind": "stop",
        "mode": "metro",
        "lineId": "1",
        "name": "Автово",
        "color": "#d6083b"
      },
      "geometry": {
        "type": "Point",
        "coordinates": [
          30.2614,
          59.8673
        ]
      }
    },
    {
      "type": "Feature",
      "properties": {
        "kind": "stop",
        "mode": "metro",
        "lineId": "1",
        "name": "Ленинский проспект",
        "color": "#d6083b"
      },
      "geometry": {
        "type": "Point",
        "coordinates": [
          30.2684,
          59.8517
        ]
      }
    },
    {
      "type": "Feature",
      "properties": {
        "kind": "stop",
        "mode": "metro",
        "lineId": "1",
        "name": "Проспект Ветеранов",
        "color": "#d6083b"
      },
      "geometry": {
        "type": "Point",
        "coordinates": [
          30.2536,
          59.8422
        ]
      }
    },
    {
      "type": "Feature",
      "properties": {
        "kind": "track",
        "mode": "metro",
        "lineId": "2",
        "name": "Московско-Петроградская",
        "color": "#0078c9"
      },
      "geometry": {
        "type": "LineString",
        "coordinates": [
          [
            30.3333592,
            60.0503443
          ],
          [
            30.3332439,
            60.0501571
          ],
          [
            30.3327871,
            60.049443
          ],
          [
            30.3324835,
            60.0489684
          ],
          [
            30.3298724,
            60.0449501
          ],
          [
            30.3293992,
            60.0444278
          ],
          [
            30.3290969,
            60.044155
          ],
          [
            30.3288757,
            60.0439731
          ],
          [
            30.3261807,
            60.0419144
          ],
          [
            30.3231186,
            60.0396247
          ],
          [
            30.3226572,
            60.0391505
          ],
          [
            30.3221983,
            60.0385938
          ],
          [
            30.3219432,
            60.0382745
          ],
          [
            30.3217535,
            60.0380079
          ],
          [
            30.3216043,
            60.0377531
          ],
          [
            30.3214706,
            60.0374978
          ],
          [
            30.321019,
            60.0359435
          ],
          [
            30.3208594,
            60.0353277
          ],
          [
            30.320709,
            60.0347475
          ],
          [
            30.3204524,
            60.0339903
          ],
          [
            30.320273,
            60.0332284
          ],
          [
            30.3201815,
            60.0325889
          ],
          [
            30.3201842,
            60.0322178
          ],
          [
            30.3202298,
            60.0318319
          ],
          [
            30.3203022,
            60.0314393
          ],
          [
            30.3205597,
            60.0307185
          ],
          [
            30.3209406,
            60.0301624
          ],
          [
            30.3240264,
            60.0259876
          ],
          [
            30.3242344,
            60.0255462
          ],
          [
            30.324583,
            60.0246832
          ],
          [
            30.3247011,
            60.0240453
          ],
          [
            30.3246581,
            60.023327
          ],
          [
            30.3242344,
            60.0224318
          ],
          [
            30.3234726,
            60.0215151
          ],
          [
            30.3229697,
            60.0209743
          ],
          [
            30.3224909,
            60.0205125
          ],
          [
            30.3219375,
            60.0200854
          ],
          [
            30.3205758,
            60.0192822
          ],
          [
            30.3190718,
            60.0185215
          ],
          [
            30.318825,
            60.0183966
          ],
          [
            30.3180541,
            60.0179742
          ],
          [
            30.3172856,
            60.0175531
          ],
          [
            30.3150775,
            60.0163438
          ],
          [
            30.3132212,
            60.0155639
          ],
          [
            30.3114177,
            60.0148675
          ],
          [
            30.3025029,
            60.0113341
          ],
          [
            30.3000271,
            60.0102166
          ],
          [
            30.2979004,
            60.0090056
          ],
          [
            30.2969563,
            60.0083621
          ],
          [
            30.2961624,
            60.00763
          ],
          [
            30.2958405,
            60.0069717
          ],
          [
            30.2957332,
            60.00632
          ],
          [
            30.2957761,
            60.0059808
          ],
          [
            30.2958512,
            60.0056107
          ],
          [
            30.2960569,
            60.0048942
          ],
          [
            30.2961949,
            60.0042832
          ],
          [
            30.2963385,
            60.0036478
          ],
          [
            30.2968285,
            60.0021825
          ],
          [
            30.2969737,
            60.0018271
          ],
          [
            30.2971422,
            60.0014842
          ],
          [
            30.2974375,
            60.0010445
          ],
          [
            30.2997644,
            59.9980319
          ],
          [
            30.300116,
            59.9974621
          ],
          [
            30.3003639,
            59.9968888
          ],
          [
            30.3004741,
            59.9961447
          ],
          [
            30.3007539,
            59.9893209
          ],
          [
            30.300736,
            59.98836
          ],
          [
            30.3006997,
            59.9878193
          ],
          [
            30.3007392,
            59.987224
          ],
          [
            30.3007738,
            59.9867015
          ],
          [
            30.3008313,
            59.9862609
          ],
          [
            30.3008656,
            59.9859809
          ],
          [
            30.3009183,
            59.9856984
          ],
          [
            30.3010208,
            59.9853202
          ],
          [
            30.3011605,
            59.9846485
          ],
          [
            30.3013516,
            59.9839134
          ],
          [
            30.3034925,
            59.9791624
          ],
          [
            30.3055153,
            59.9751584
          ],
          [
            30.3064338,
            59.9733008
          ],
          [
            30.3069735,
            59.9721156
          ],
          [
            30.3074516,
            59.9712126
          ],
          [
            30.3079089,
            59.9705939
          ],
          [
            30.3084366,
            59.9699954
          ],
          [
            30.3094079,
            59.9687777
          ],
          [
            30.3104246,
            59.9675952
          ],
          [
            30.3114322,
            59.9664336
          ],
          [
            30.3118403,
            59.9660069
          ],
          [
            30.3127204,
            59.9648929
          ],
          [
            30.3131681,
            59.9643262
          ],
          [
            30.3138753,
            59.9632134
          ],
          [
            30.3169047,
            59.9589839
          ],
          [
            30.3174006,
            59.9581964
          ],
          [
            30.3183993,
            59.9564035
          ],
          [
            30.3188948,
            59.9556858
          ],
          [
            30.3192785,
            59.9551252
          ],
          [
            30.3196712,
            59.9545515
          ],
          [
            30.3207182,
            59.9530332
          ],
          [
            30.3212185,
            59.9521583
          ],
          [
            30.3219692,
            59.9503811
          ],
          [
            30.325324,
            59.9438343
          ],
          [
            30.3260595,
            59.9423828
          ],
          [
            30.3276075,
            59.939387
          ],
          [
            30.3280536,
            59.9383419
          ],
          [
            30.3285461,
            59.9372847
          ],
          [
            30.3286574,
            59.9370606
          ],
          [
            30.3287324,
            59.9368279
          ],
          [
            30.3287685,
            59.9365675
          ],
          [
            30.3287777,
            59.9361614
          ],
          [
            30.3287495,
            59.9356329
          ],
          [
            30.3287167,
            59.9353186
          ],
          [
            30.3286004,
            59.9348213
          ],
          [
            30.3285479,
            59.9346857
          ],
          [
            30.3283851,
            59.9343847
          ],
          [
            30.3281882,
            59.9339823
          ],
          [
            30.3278079,
            59.9332052
          ],
          [
            30.3275577,
            59.9327629
          ],
          [
            30.3272204,
            59.9322734
          ],
          [
            30.3267708,
            59.9317512
          ],
          [
            30.3265361,
            59.931515
          ],
          [
            30.3262599,
            59.9312749
          ],
          [
            30.3260133,
            59.9310841
          ],
          [
            30.3257112,
            59.9308825
          ],
          [
            30.3245512,
            59.9302484
          ],
          [
            30.3230577,
            59.9296347
          ],
          [
            30.3225283,
            59.9293966
          ],
          [
            30.3222016,
            59.9292243
          ],
          [
            30.321938,
            59.9290523
          ],
          [
            30.3215068,
            59.928694
          ],
          [
            30.3211143,
            59.9283618
          ],
          [
            30.3208926,
            59.9281355
          ],
          [
            30.3206643,
            59.9278881
          ],
          [
            30.3204042,
            59.9274715
          ],
          [
            30.3202017,
            59.9269978
          ],
          [
            30.3199134,
            59.9261352
          ],
          [
            30.3197412,
            59.9255977
          ],
          [
            30.3196628,
            59.9249977
          ],
          [
            30.3196793,
            59.9244009
          ],
          [
            30.3198391,
            59.9238607
          ],
          [
            30.3202071,
            59.9229948
          ],
          [
            30.3210669,
            59.9207389
          ],
          [
            30.321135,
            59.9201349
          ],
          [
            30.3210879,
            59.9196675
          ],
          [
            30.320894,
            59.9191161
          ],
          [
            30.3206435,
            59.9185924
          ],
          [
            30.3202111,
            59.9179813
          ],
          [
            30.3191813,
            59.9169337
          ],
          [
            30.3189859,
            59.9167409
          ],
          [
            30.3180055,
            59.9157821
          ],
          [
            30.3174801,
            59.9151857
          ],
          [
            30.3169044,
            59.9145319
          ],
          [
            30.3167312,
            59.9143361
          ],
          [
            30.3165185,
            59.9141054
          ],
          [
            30.3163114,
            59.9138843
          ],
          [
            30.3159532,
            59.9134979
          ],
          [
            30.3154678,
            59.9129164
          ],
          [
            30.3152338,
            59.9126073
          ],
          [
            30.3150036,
            59.9123007
          ],
          [
            30.3147666,
            59.9119522
          ],
          [
            30.3145759,
            59.9115994
          ],
          [
            30.3144311,
            59.9111997
          ],
          [
            30.3144633,
            59.910612
          ],
          [
            30.3147263,
            59.9097391
          ],
          [
            30.3150069,
            59.9092701
          ],
          [
            30.3159441,
            59.9080802
          ],
          [
            30.3161919,
            59.9077635
          ],
          [
            30.3173106,
            59.906185
          ],
          [
            30.3174372,
            59.9060019
          ],
          [
            30.3175312,
            59.9058311
          ],
          [
            30.3180487,
            59.9047788
          ],
          [
            30.3182214,
            59.9042586
          ],
          [
            30.3183514,
            59.9037206
          ],
          [
            30.3184602,
            59.902502
          ],
          [
            30.3185641,
            59.8962211
          ],
          [
            30.3184684,
            59.8952807
          ],
          [
            30.3179759,
            59.8931501
          ],
          [
            30.3178656,
            59.8926611
          ],
          [
            30.3177334,
            59.892075
          ],
          [
            30.317461,
            59.8909638
          ],
          [
            30.3173738,
            59.890377
          ],
          [
            30.3173787,
            59.8899868
          ],
          [
            30.3174382,
            59.8895942
          ],
          [
            30.3176314,
            59.8889133
          ],
          [
            30.3178543,
            59.8882224
          ],
          [
            30.3182505,
            59.8873302
          ],
          [
            30.3189969,
            59.8855213
          ],
          [
            30.3196475,
            59.8840049
          ],
          [
            30.319697,
            59.8836171
          ],
          [
            30.3196747,
            59.8832095
          ],
          [
            30.3195583,
            59.8824365
          ],
          [
            30.3193998,
            59.8815901
          ],
          [
            30.3191305,
            59.880795
          ],
          [
            30.3188996,
            59.8802786
          ],
          [
            30.3185086,
            59.879404
          ],
          [
            30.3183249,
            59.8789888
          ],
          [
            30.3182109,
            59.8785662
          ],
          [
            30.3181961,
            59.8780268
          ],
          [
            30.3182382,
            59.8774836
          ],
          [
            30.3184759,
            59.8767304
          ],
          [
            30.3202189,
            59.8706478
          ],
          [
            30.3206101,
            59.8696309
          ],
          [
            30.3211092,
            59.8685854
          ],
          [
            30.3213632,
            59.8676089
          ],
          [
            30.3215228,
            59.8670093
          ],
          [
            30.3216317,
            59.8665589
          ],
          [
            30.3216784,
            59.8663765
          ],
          [
            30.3217176,
            59.8658767
          ],
          [
            30.3217187,
            59.8658621
          ],
          [
            30.3216862,
            59.865355
          ],
          [
            30.3215341,
            59.86457
          ],
          [
            30.3214308,
            59.8632764
          ],
          [
            30.321444,
            59.8621259
          ],
          [
            30.321646,
            59.8607628
          ],
          [
            30.3219491,
            59.8570604
          ],
          [
            30.3218472,
            59.854846
          ],
          [
            30.321874,
            59.8540702
          ],
          [
            30.3220872,
            59.8522443
          ],
          [
            30.3221334,
            59.8513976
          ],
          [
            30.3221854,
            59.8504762
          ],
          [
            30.3222817,
            59.8494388
          ],
          [
            30.3225848,
            59.8483543
          ],
          [
            30.3230488,
            59.8469814
          ],
          [
            30.323317,
            59.8463967
          ],
          [
            30.3236604,
            59.8458308
          ],
          [
            30.3240037,
            59.8454495
          ],
          [
            30.324406,
            59.8450722
          ],
          [
            30.3248969,
            59.8447461
          ],
          [
            30.3253287,
            59.8445023
          ],
          [
            30.3303712,
            59.8420795
          ],
          [
            30.3409231,
            59.8369223
          ],
          [
            30.3427228,
            59.8358751
          ],
          [
            30.3444475,
            59.8347429
          ],
          [
            30.3449571,
            59.8344693
          ],
          [
            30.3453755,
            59.834255
          ],
          [
            30.3458691,
            59.8340515
          ],
          [
            30.3463894,
            59.833879
          ],
          [
            30.3469259,
            59.8337361
          ],
          [
            30.3481744,
            59.8334369
          ],
          [
            30.349007,
            59.8332626
          ],
          [
            30.3493868,
            59.8331923
          ],
          [
            30.3497477,
            59.8331208
          ],
          [
            30.3514235,
            59.8328177
          ],
          [
            30.3537601,
            59.832395
          ],
          [
            30.3547007,
            59.8322678
          ],
          [
            30.3548169,
            59.8322521
          ],
          [
            30.355635,
            59.8321968
          ],
          [
            30.356622,
            59.8321874
          ],
          [
            30.3573275,
            59.8321955
          ],
          [
            30.3581804,
            59.8322521
          ],
          [
            30.3599185,
            59.8324408
          ],
          [
            30.3616834,
            59.83267
          ]
        ]
      }
    },
    {
      "type": "Feature",
      "properties": {
        "kind": "stop",
        "mode": "metro",
        "lineId": "2",
        "name": "Проспект Просвещения",
        "color": "#0078c9"
      },
      "geometry": {
        "type": "Point",
        "coordinates": [
          30.3324,
          60.0513
        ]
      }
    },
    {
      "type": "Feature",
      "properties": {
        "kind": "stop",
        "mode": "metro",
        "lineId": "2",
        "name": "Озерки",
        "color": "#0078c9"
      },
      "geometry": {
        "type": "Point",
        "coordinates": [
          30.3214,
          60.0369
        ]
      }
    },
    {
      "type": "Feature",
      "properties": {
        "kind": "stop",
        "mode": "metro",
        "lineId": "2",
        "name": "Удельная",
        "color": "#0078c9"
      },
      "geometry": {
        "type": "Point",
        "coordinates": [
          30.3156,
          60.0167
        ]
      }
    },
    {
      "type": "Feature",
      "properties": {
        "kind": "stop",
        "mode": "metro",
        "lineId": "2",
        "name": "Пионерская",
        "color": "#0078c9"
      },
      "geometry": {
        "type": "Point",
        "coordinates": [
          30.2969,
          60.0025
        ]
      }
    },
    {
      "type": "Feature",
      "properties": {
        "kind": "stop",
        "mode": "metro",
        "lineId": "2",
        "name": "Чёрная речка",
        "color": "#0078c9"
      },
      "geometry": {
        "type": "Point",
        "coordinates": [
          30.3006,
          59.9854
        ]
      }
    },
    {
      "type": "Feature",
      "properties": {
        "kind": "stop",
        "mode": "metro",
        "lineId": "2",
        "name": "Петроградская",
        "color": "#0078c9"
      },
      "geometry": {
        "type": "Point",
        "coordinates": [
          30.3115,
          59.9663
        ]
      }
    },
    {
      "type": "Feature",
      "properties": {
        "kind": "stop",
        "mode": "metro",
        "lineId": "2",
        "name": "Горьковская",
        "color": "#0078c9"
      },
      "geometry": {
        "type": "Point",
        "coordinates": [
          30.3189,
          59.9563
        ]
      }
    },
    {
      "type": "Feature",
      "properties": {
        "kind": "stop",
        "mode": "metro",
        "lineId": "2",
        "name": "Невский проспект",
        "color": "#0078c9"
      },
      "geometry": {
        "type": "Point",
        "coordinates": [
          30.3301,
          59.9354
        ]
      }
    },
    {
      "type": "Feature",
      "properties": {
        "kind": "stop",
        "mode": "metro",
        "lineId": "2",
        "name": "Сенная площадь",
        "color": "#0078c9"
      },
      "geometry": {
        "type": "Point",
        "coordinates": [
          30.3203,
          59.927
        ]
      }
    },
    {
      "type": "Feature",
      "properties": {
        "kind": "stop",
        "mode": "metro",
        "lineId": "2",
        "name": "Технологический институт",
        "color": "#0078c9"
      },
      "geometry": {
        "type": "Point",
        "coordinates": [
          30.3186,
          59.9164
        ]
      }
    },
    {
      "type": "Feature",
      "properties": {
        "kind": "stop",
        "mode": "metro",
        "lineId": "2",
        "name": "Фрунзенская",
        "color": "#0078c9"
      },
      "geometry": {
        "type": "Point",
        "coordinates": [
          30.3174,
          59.9062
        ]
      }
    },
    {
      "type": "Feature",
      "properties": {
        "kind": "stop",
        "mode": "metro",
        "lineId": "2",
        "name": "Московские ворота",
        "color": "#0078c9"
      },
      "geometry": {
        "type": "Point",
        "coordinates": [
          30.3178,
          59.8917
        ]
      }
    },
    {
      "type": "Feature",
      "properties": {
        "kind": "stop",
        "mode": "metro",
        "lineId": "2",
        "name": "Электросила",
        "color": "#0078c9"
      },
      "geometry": {
        "type": "Point",
        "coordinates": [
          30.3186,
          59.8792
        ]
      }
    },
    {
      "type": "Feature",
      "properties": {
        "kind": "stop",
        "mode": "metro",
        "lineId": "2",
        "name": "Парк Победы",
        "color": "#0078c9"
      },
      "geometry": {
        "type": "Point",
        "coordinates": [
          30.3217,
          59.8664
        ]
      }
    },
    {
      "type": "Feature",
      "properties": {
        "kind": "stop",
        "mode": "metro",
        "lineId": "2",
        "name": "Московская",
        "color": "#0078c9"
      },
      "geometry": {
        "type": "Point",
        "coordinates": [
          30.3222,
          59.8522
        ]
      }
    },
    {
      "type": "Feature",
      "properties": {
        "kind": "stop",
        "mode": "metro",
        "lineId": "2",
        "name": "Звёздная",
        "color": "#0078c9"
      },
      "geometry": {
        "type": "Point",
        "coordinates": [
          30.3492,
          59.8331
        ]
      }
    },
    {
      "type": "Feature",
      "properties": {
        "kind": "stop",
        "mode": "metro",
        "lineId": "2",
        "name": "Купчино",
        "color": "#0078c9"
      },
      "geometry": {
        "type": "Point",
        "coordinates": [
          30.3631,
          59.8296
        ]
      }
    },
    {
      "type": "Feature",
      "properties": {
        "kind": "track",
        "mode": "metro",
        "lineId": "3",
        "name": "Невско-Василеостровская",
        "color": "#009a49"
      },
      "geometry": {
        "type": "LineString",
        "coordinates": [
          [
            30.4993188,
            59.8312273
          ],
          [
            30.4992667,
            59.8312464
          ],
          [
            30.4984823,
            59.8315342
          ],
          [
            30.4957479,
            59.8325627
          ],
          [
            30.4897642,
            59.8345731
          ],
          [
            30.4875192,
            59.835247
          ],
          [
            30.4822057,
            59.8367349
          ],
          [
            30.4712957,
            59.840127
          ],
          [
            30.4676521,
            59.841333
          ],
          [
            30.4598813,
            59.84372
          ],
          [
            30.4583985,
            59.8441924
          ],
          [
            30.4579706,
            59.8443379
          ],
          [
            30.4575857,
            59.8444969
          ],
          [
            30.4572344,
            59.844668
          ],
          [
            30.4569071,
            59.8448607
          ],
          [
            30.4564056,
            59.8452501
          ],
          [
            30.4561025,
            59.8455909
          ],
          [
            30.4559389,
            59.8458672
          ],
          [
            30.4558155,
            59.8461946
          ],
          [
            30.4557833,
            59.846464
          ],
          [
            30.4557994,
            59.8467577
          ],
          [
            30.4558678,
            59.8469693
          ],
          [
            30.4559563,
            59.8471815
          ],
          [
            30.4560408,
            59.847327
          ],
          [
            30.4561374,
            59.8474617
          ],
          [
            30.4562607,
            59.8476119
          ],
          [
            30.4564123,
            59.8477682
          ],
          [
            30.4565692,
            59.847911
          ],
          [
            30.4568106,
            59.8480902
          ],
          [
            30.4569983,
            59.8482088
          ],
          [
            30.4574959,
            59.848485
          ],
          [
            30.4583421,
            59.8489114
          ],
          [
            30.4592154,
            59.8493408
          ],
          [
            30.4600069,
            59.8497377
          ],
          [
            30.4607042,
            59.8500873
          ],
          [
            30.4621301,
            59.8508022
          ],
          [
            30.4637575,
            59.8516185
          ],
          [
            30.4643154,
            59.8519297
          ],
          [
            30.4648626,
            59.8522691
          ],
          [
            30.4654258,
            59.8526733
          ],
          [
            30.4659596,
            59.8531151
          ],
          [
            30.466496,
            59.8536512
          ],
          [
            30.4707205,
            59.8582968
          ],
          [
            30.4721057,
            59.8597986
          ],
          [
            30.4725069,
            59.8602254
          ],
          [
            30.4728126,
            59.8606187
          ],
          [
            30.473054,
            59.8610146
          ],
          [
            30.4731828,
            59.8613244
          ],
          [
            30.4732418,
            59.8615776
          ],
          [
            30.4732954,
            59.8619816
          ],
          [
            30.4732589,
            59.8622493
          ],
          [
            30.4731613,
            59.862768
          ],
          [
            30.4729364,
            59.8632072
          ],
          [
            30.4728958,
            59.8632865
          ],
          [
            30.4725954,
            59.8637188
          ],
          [
            30.472322,
            59.8640196
          ],
          [
            30.4719812,
            59.8643652
          ],
          [
            30.4715091,
            59.8646937
          ],
          [
            30.4709351,
            59.8650034
          ],
          [
            30.4701184,
            59.865366
          ],
          [
            30.4692239,
            59.8657171
          ],
          [
            30.4684049,
            59.8660217
          ],
          [
            30.4674468,
            59.866365
          ],
          [
            30.4648329,
            59.8672946
          ],
          [
            30.4633845,
            59.867801
          ],
          [
            30.449354,
            59.8721584
          ],
          [
            30.4486513,
            59.872398
          ],
          [
            30.4481095,
            59.8726457
          ],
          [
            30.4475248,
            59.8729688
          ],
          [
            30.446759,
            59.8734817
          ],
          [
            30.4456039,
            59.8743907
          ],
          [
            30.4430187,
            59.8764716
          ],
          [
            30.4420109,
            59.8773074
          ],
          [
            30.4414201,
            59.8777961
          ],
          [
            30.440901,
            59.8782666
          ],
          [
            30.4403201,
            59.8788561
          ],
          [
            30.4397246,
            59.8794605
          ],
          [
            30.438754,
            59.8805231
          ],
          [
            30.4355458,
            59.8840793
          ],
          [
            30.4338777,
            59.8858392
          ],
          [
            30.4303586,
            59.8896528
          ],
          [
            30.4286903,
            59.8913185
          ],
          [
            30.4280198,
            59.8920236
          ],
          [
            30.4275906,
            59.8925483
          ],
          [
            30.4264533,
            59.8937511
          ],
          [
            30.425281,
            59.8951656
          ],
          [
            30.4246992,
            59.8959387
          ],
          [
            30.4241601,
            59.8964674
          ],
          [
            30.4232722,
            59.8971118
          ],
          [
            30.4224265,
            59.8976805
          ],
          [
            30.4218376,
            59.8981054
          ],
          [
            30.4211293,
            59.8986164
          ],
          [
            30.4202494,
            59.8992426
          ],
          [
            30.4188412,
            59.9002973
          ],
          [
            30.4161825,
            59.9022492
          ],
          [
            30.4129565,
            59.9046176
          ],
          [
            30.4082991,
            59.9079514
          ],
          [
            30.4053519,
            59.9100286
          ],
          [
            30.3979039,
            59.9155369
          ],
          [
            30.3936606,
            59.9187986
          ],
          [
            30.392459,
            59.9198069
          ],
          [
            30.3901966,
            59.9212929
          ],
          [
            30.3889761,
            59.9220887
          ],
          [
            30.3876418,
            59.9229014
          ],
          [
            30.386918,
            59.9233834
          ],
          [
            30.3862622,
            59.92382
          ],
          [
            30.3853607,
            59.9244646
          ],
          [
            30.3848416,
            59.924794
          ],
          [
            30.3843051,
            59.9250763
          ],
          [
            30.3836292,
            59.9253478
          ],
          [
            30.3827548,
            59.9256301
          ],
          [
            30.3806305,
            59.9261462
          ],
          [
            30.3784901,
            59.926493
          ],
          [
            30.3770926,
            59.9266704
          ],
          [
            30.3745902,
            59.9271059
          ],
          [
            30.3717711,
            59.9276879
          ],
          [
            30.3686276,
            59.9282887
          ],
          [
            30.3668413,
            59.9286542
          ],
          [
            30.3648752,
            59.9290897
          ],
          [
            30.3629359,
            59.9294638
          ],
          [
            30.3600581,
            59.9300161
          ],
          [
            30.3596278,
            59.9301248
          ],
          [
            30.3589069,
            59.9303069
          ],
          [
            30.3577159,
            59.9306269
          ],
          [
            30.3549872,
            59.9313824
          ],
          [
            30.354538,
            59.9315034
          ],
          [
            30.3540552,
            59.9316243
          ],
          [
            30.3530788,
            59.9318367
          ],
          [
            30.3523077,
            59.9319489
          ],
          [
            30.3514695,
            59.9320503
          ],
          [
            30.3505093,
            59.9321283
          ],
          [
            30.3489633,
            59.9322278
          ],
          [
            30.3358679,
            59.9336588
          ],
          [
            30.3340852,
            59.9339357
          ],
          [
            30.3334634,
            59.934025
          ],
          [
            30.3329963,
            59.9340751
          ],
          [
            30.331392,
            59.9341756
          ],
          [
            30.3302368,
            59.9343126
          ],
          [
            30.3290507,
            59.9344531
          ],
          [
            30.3278876,
            59.9345827
          ],
          [
            30.3264143,
            59.9347243
          ],
          [
            30.3233077,
            59.9349477
          ],
          [
            30.3171925,
            59.9352128
          ],
          [
            30.3165532,
            59.935245
          ],
          [
            30.315959,
            59.9352956
          ],
          [
            30.3155035,
            59.9353329
          ],
          [
            30.3148542,
            59.9354325
          ],
          [
            30.2946496,
            59.9393547
          ],
          [
            30.2870321,
            59.9407641
          ],
          [
            30.2826494,
            59.9417153
          ],
          [
            30.2796453,
            59.9424757
          ],
          [
            30.2783256,
            59.9427444
          ],
          [
            30.2775076,
            59.9428787
          ],
          [
            30.2763681,
            59.9430574
          ],
          [
            30.2754246,
            59.9432602
          ],
          [
            30.2739718,
            59.943569
          ],
          [
            30.2726904,
            59.9438245
          ],
          [
            30.2703837,
            59.9442973
          ],
          [
            30.267908,
            59.944832
          ],
          [
            30.2642494,
            59.9453559
          ],
          [
            30.2614063,
            59.9457052
          ],
          [
            30.2591532,
            59.9459872
          ],
          [
            30.25481,
            59.9464453
          ],
          [
            30.2450073,
            59.9474031
          ],
          [
            30.2436528,
            59.9475763
          ],
          [
            30.2420541,
            59.9478429
          ],
          [
            30.2403107,
            59.9481687
          ],
          [
            30.2388751,
            59.9485286
          ],
          [
            30.2380167,
            59.948797
          ],
          [
            30.2368666,
            59.9491566
          ],
          [
            30.2354847,
            59.9496249
          ]
        ]
      }
    },
    {
      "type": "Feature",
      "properties": {
        "kind": "stop",
        "mode": "metro",
        "lineId": "3",
        "name": "Приморская",
        "color": "#009a49"
      },
      "geometry": {
        "type": "Point",
        "coordinates": [
          30.2344,
          59.9485
        ]
      }
    },
    {
      "type": "Feature",
      "properties": {
        "kind": "stop",
        "mode": "metro",
        "lineId": "3",
        "name": "Василеостровская",
        "color": "#009a49"
      },
      "geometry": {
        "type": "Point",
        "coordinates": [
          30.2781,
          59.9427
        ]
      }
    },
    {
      "type": "Feature",
      "properties": {
        "kind": "stop",
        "mode": "metro",
        "lineId": "3",
        "name": "Гостиный двор",
        "color": "#009a49"
      },
      "geometry": {
        "type": "Point",
        "coordinates": [
          30.3338,
          59.9339
        ]
      }
    },
    {
      "type": "Feature",
      "properties": {
        "kind": "stop",
        "mode": "metro",
        "lineId": "3",
        "name": "Маяковская",
        "color": "#009a49"
      },
      "geometry": {
        "type": "Point",
        "coordinates": [
          30.3548,
          59.9314
        ]
      }
    },
    {
      "type": "Feature",
      "properties": {
        "kind": "stop",
        "mode": "metro",
        "lineId": "3",
        "name": "Площадь Александра Невского",
        "color": "#009a49"
      },
      "geometry": {
        "type": "Point",
        "coordinates": [
          30.385,
          59.9244
        ]
      }
    },
    {
      "type": "Feature",
      "properties": {
        "kind": "stop",
        "mode": "metro",
        "lineId": "3",
        "name": "Елизаровская",
        "color": "#009a49"
      },
      "geometry": {
        "type": "Point",
        "coordinates": [
          30.4235,
          59.8966
        ]
      }
    },
    {
      "type": "Feature",
      "properties": {
        "kind": "stop",
        "mode": "metro",
        "lineId": "3",
        "name": "Ломоносовская",
        "color": "#009a49"
      },
      "geometry": {
        "type": "Point",
        "coordinates": [
          30.4417,
          59.8774
        ]
      }
    },
    {
      "type": "Feature",
      "properties": {
        "kind": "stop",
        "mode": "metro",
        "lineId": "3",
        "name": "Пролетарская",
        "color": "#009a49"
      },
      "geometry": {
        "type": "Point",
        "coordinates": [
          30.4704,
          59.8652
        ]
      }
    },
    {
      "type": "Feature",
      "properties": {
        "kind": "stop",
        "mode": "metro",
        "lineId": "3",
        "name": "Обухово",
        "color": "#009a49"
      },
      "geometry": {
        "type": "Point",
        "coordinates": [
          30.4575,
          59.8486
        ]
      }
    },
    {
      "type": "Feature",
      "properties": {
        "kind": "stop",
        "mode": "metro",
        "lineId": "3",
        "name": "Рыбацкое",
        "color": "#009a49"
      },
      "geometry": {
        "type": "Point",
        "coordinates": [
          30.5003,
          59.8309
        ]
      }
    },
    {
      "type": "Feature",
      "properties": {
        "kind": "track",
        "mode": "metro",
        "lineId": "4",
        "name": "Лахтинско-Правобережная",
        "color": "#eb7125"
      },
      "geometry": {
        "type": "LineString",
        "coordinates": [
          [
            30.4813412,
            59.9095177
          ],
          [
            30.4813071,
            59.9095471
          ],
          [
            30.4810665,
            59.9097691
          ],
          [
            30.474609,
            59.9157266
          ],
          [
            30.4733527,
            59.9167221
          ],
          [
            30.4727086,
            59.9171786
          ],
          [
            30.4668576,
            59.9198862
          ],
          [
            30.4648999,
            59.9207134
          ],
          [
            30.4647841,
            59.9207664
          ],
          [
            30.4641024,
            59.921077
          ],
          [
            30.462612,
            59.9217565
          ],
          [
            30.457894,
            59.9241652
          ],
          [
            30.4498919,
            59.9283928
          ],
          [
            30.4485233,
            59.9291331
          ],
          [
            30.4475075,
            59.9296332
          ],
          [
            30.4464888,
            59.9301293
          ],
          [
            30.4457043,
            59.9305033
          ],
          [
            30.4450842,
            59.9307655
          ],
          [
            30.4444088,
            59.9310001
          ],
          [
            30.4438902,
            59.931149
          ],
          [
            30.4424603,
            59.931565
          ],
          [
            30.4411286,
            59.9319524
          ],
          [
            30.4397528,
            59.9323563
          ],
          [
            30.4386868,
            59.9326129
          ],
          [
            30.4372007,
            59.9328767
          ],
          [
            30.4354501,
            59.9330814
          ],
          [
            30.4342966,
            59.9331588
          ],
          [
            30.4332073,
            59.9331585
          ],
          [
            30.4318566,
            59.9330306
          ],
          [
            30.4306405,
            59.9327641
          ],
          [
            30.4165809,
            59.9299243
          ],
          [
            30.4151752,
            59.929641
          ],
          [
            30.4137605,
            59.9293558
          ],
          [
            30.4120059,
            59.9289995
          ],
          [
            30.4101282,
            59.9285752
          ],
          [
            30.4082251,
            59.9279784
          ],
          [
            30.3931452,
            59.9232662
          ],
          [
            30.3916237,
            59.9229034
          ],
          [
            30.39016,
            59.922655
          ],
          [
            30.3890055,
            59.9225053
          ],
          [
            30.3875887,
            59.9223803
          ],
          [
            30.3864423,
            59.9223327
          ],
          [
            30.3848523,
            59.922271
          ],
          [
            30.383328,
            59.9222119
          ],
          [
            30.3799644,
            59.922093
          ],
          [
            30.3786135,
            59.9220866
          ],
          [
            30.3779585,
            59.9220787
          ],
          [
            30.3757775,
            59.9219059
          ],
          [
            30.372686,
            59.9215743
          ],
          [
            30.3712886,
            59.9213418
          ],
          [
            30.3699751,
            59.9210252
          ],
          [
            30.3684941,
            59.9205846
          ],
          [
            30.3679812,
            59.9204184
          ],
          [
            30.3672289,
            59.9202825
          ],
          [
            30.3665902,
            59.920217
          ],
          [
            30.3657014,
            59.9201836
          ],
          [
            30.3645373,
            59.9202606
          ],
          [
            30.3635999,
            59.9203735
          ],
          [
            30.3630498,
            59.9204849
          ],
          [
            30.3623802,
            59.9206205
          ],
          [
            30.360726,
            59.9211562
          ],
          [
            30.3593559,
            59.9216378
          ],
          [
            30.3578895,
            59.9221532
          ],
          [
            30.3570007,
            59.9225015
          ],
          [
            30.3564559,
            59.9227822
          ],
          [
            30.3556275,
            59.9232789
          ],
          [
            30.3550133,
            59.9237124
          ],
          [
            30.3545986,
            59.9241214
          ],
          [
            30.3536798,
            59.9249941
          ],
          [
            30.3531701,
            59.9253174
          ],
          [
            30.3526168,
            59.9255967
          ],
          [
            30.3516088,
            59.926021
          ],
          [
            30.3507785,
            59.9263061
          ],
          [
            30.3494787,
            59.9265907
          ],
          [
            30.3480012,
            59.9267715
          ],
          [
            30.345849,
            59.9269321
          ],
          [
            30.3447551,
            59.9270137
          ],
          [
            30.3430571,
            59.9271484
          ],
          [
            30.3416537,
            59.927262
          ],
          [
            30.3407886,
            59.9273063
          ],
          [
            30.3399573,
            59.9272948
          ],
          [
            30.3391276,
            59.9272549
          ],
          [
            30.3382934,
            59.9271844
          ],
          [
            30.3377433,
            59.9271003
          ],
          [
            30.3371612,
            59.9269999
          ],
          [
            30.336469,
            59.9268303
          ],
          [
            30.3356947,
            59.9265953
          ],
          [
            30.3348473,
            59.926317
          ],
          [
            30.3341321,
            59.9260637
          ],
          [
            30.3328183,
            59.9255691
          ],
          [
            30.3316207,
            59.9249387
          ],
          [
            30.3311144,
            59.9247094
          ],
          [
            30.3304834,
            59.9244889
          ],
          [
            30.3296496,
            59.9242798
          ],
          [
            30.3289008,
            59.9241451
          ],
          [
            30.32822,
            59.9240533
          ],
          [
            30.3271039,
            59.9239642
          ],
          [
            30.3255609,
            59.923963
          ],
          [
            30.3239327,
            59.9240619
          ],
          [
            30.3223543,
            59.9243013
          ],
          [
            30.3214466,
            59.9245175
          ],
          [
            30.3205731,
            59.924794
          ],
          [
            30.3200984,
            59.9250091
          ],
          [
            30.318805,
            59.9257144
          ],
          [
            30.3168867,
            59.9269597
          ]
        ]
      }
    },
    {
      "type": "Feature",
      "properties": {
        "kind": "stop",
        "mode": "metro",
        "lineId": "4",
        "name": "Садовая",
        "color": "#eb7125"
      },
      "geometry": {
        "type": "Point",
        "coordinates": [
          30.3178,
          59.9267
        ]
      }
    },
    {
      "type": "Feature",
      "properties": {
        "kind": "stop",
        "mode": "metro",
        "lineId": "4",
        "name": "Достоевская",
        "color": "#eb7125"
      },
      "geometry": {
        "type": "Point",
        "coordinates": [
          30.3464,
          59.9283
        ]
      }
    },
    {
      "type": "Feature",
      "properties": {
        "kind": "stop",
        "mode": "metro",
        "lineId": "4",
        "name": "Лиговский проспект",
        "color": "#eb7125"
      },
      "geometry": {
        "type": "Point",
        "coordinates": [
          30.3553,
          59.9206
        ]
      }
    },
    {
      "type": "Feature",
      "properties": {
        "kind": "stop",
        "mode": "metro",
        "lineId": "4",
        "name": "Площадь Александра Невского",
        "color": "#eb7125"
      },
      "geometry": {
        "type": "Point",
        "coordinates": [
          30.3836,
          59.9235
        ]
      }
    },
    {
      "type": "Feature",
      "properties": {
        "kind": "stop",
        "mode": "metro",
        "lineId": "4",
        "name": "Новочеркасская",
        "color": "#eb7125"
      },
      "geometry": {
        "type": "Point",
        "coordinates": [
          30.4117,
          59.929
        ]
      }
    },
    {
      "type": "Feature",
      "properties": {
        "kind": "stop",
        "mode": "metro",
        "lineId": "4",
        "name": "Ладожская",
        "color": "#eb7125"
      },
      "geometry": {
        "type": "Point",
        "coordinates": [
          30.4392,
          59.9322
        ]
      }
    },
    {
      "type": "Feature",
      "properties": {
        "kind": "stop",
        "mode": "metro",
        "lineId": "4",
        "name": "Проспект Большевиков",
        "color": "#eb7125"
      },
      "geometry": {
        "type": "Point",
        "coordinates": [
          30.4667,
          59.9198
        ]
      }
    },
    {
      "type": "Feature",
      "properties": {
        "kind": "stop",
        "mode": "metro",
        "lineId": "4",
        "name": "Улица Дыбенко",
        "color": "#eb7125"
      },
      "geometry": {
        "type": "Point",
        "coordinates": [
          30.4833,
          59.9074
        ]
      }
    },
    {
      "type": "Feature",
      "properties": {
        "kind": "track",
        "mode": "metro",
        "lineId": "5",
        "name": "Фрунзенско-Приморская",
        "color": "#702785"
      },
      "geometry": {
        "type": "LineString",
        "coordinates": [
          [
            30.3191772,
            59.9261641
          ],
          [
            30.3192695,
            59.926525
          ],
          [
            30.3195495,
            59.9275958
          ],
          [
            30.3197803,
            59.9284786
          ],
          [
            30.3198732,
            59.9287231
          ],
          [
            30.3202358,
            59.9298723
          ],
          [
            30.3203989,
            59.930219
          ],
          [
            30.3205416,
            59.9304954
          ],
          [
            30.3207393,
            59.9308126
          ],
          [
            30.3210094,
            59.9312439
          ],
          [
            30.3211172,
            59.9315312
          ],
          [
            30.3211561,
            59.9319263
          ],
          [
            30.3210849,
            59.9323623
          ],
          [
            30.3210301,
            59.9325109
          ],
          [
            30.3209019,
            59.9328584
          ],
          [
            30.3206711,
            59.9333013
          ],
          [
            30.3204318,
            59.9336197
          ],
          [
            30.32013,
            59.933929
          ],
          [
            30.3197584,
            59.9342318
          ],
          [
            30.3193216,
            59.9345195
          ],
          [
            30.3188654,
            59.9347666
          ],
          [
            30.31836,
            59.9349937
          ],
          [
            30.3178157,
            59.9351955
          ],
          [
            30.3172456,
            59.9353684
          ],
          [
            30.3139449,
            59.9361982
          ],
          [
            30.3113051,
            59.9368348
          ],
          [
            30.3098776,
            59.9371467
          ],
          [
            30.3088805,
            59.9373132
          ],
          [
            30.3012875,
            59.9383136
          ],
          [
            30.3006358,
            59.9384451
          ],
          [
            30.2996631,
            59.9386536
          ],
          [
            30.2987556,
            59.9389255
          ],
          [
            30.2977611,
            59.9392813
          ],
          [
            30.2965807,
            59.9397377
          ],
          [
            30.2959227,
            59.9400321
          ],
          [
            30.2885566,
            59.9436826
          ],
          [
            30.287795,
            59.9441171
          ],
          [
            30.2873191,
            59.9444525
          ],
          [
            30.2870619,
            59.9447743
          ],
          [
            30.2867109,
            59.9452627
          ],
          [
            30.2864763,
            59.9456807
          ],
          [
            30.2863467,
            59.9462672
          ],
          [
            30.286316,
            59.946597
          ],
          [
            30.2863544,
            59.9469552
          ],
          [
            30.2865958,
            59.9474756
          ],
          [
            30.2870523,
            59.9481311
          ],
          [
            30.2873913,
            59.948513
          ],
          [
            30.2877048,
            59.9488457
          ],
          [
            30.2881544,
            59.9492702
          ],
          [
            30.2891949,
            59.9500989
          ],
          [
            30.2900381,
            59.9507739
          ],
          [
            30.290976,
            59.9515396
          ],
          [
            30.2922281,
            59.9525456
          ],
          [
            30.2927437,
            59.9530078
          ],
          [
            30.2929033,
            59.9532292
          ],
          [
            30.2931663,
            59.9536866
          ],
          [
            30.2934083,
            59.9543818
          ],
          [
            30.2934282,
            59.9547663
          ],
          [
            30.2929209,
            59.9577163
          ],
          [
            30.2927557,
            59.9586421
          ],
          [
            30.2926315,
            59.9593437
          ],
          [
            30.2925007,
            59.9600822
          ],
          [
            30.2921671,
            59.9612159
          ]
        ]
      }
    },
    {
      "type": "Feature",
      "properties": {
        "kind": "stop",
        "mode": "metro",
        "lineId": "5",
        "name": "Чкаловская",
        "color": "#702785"
      },
      "geometry": {
        "type": "Point",
        "coordinates": [
          30.292,
          59.9608
        ]
      }
    },
    {
      "type": "Feature",
      "properties": {
        "kind": "stop",
        "mode": "metro",
        "lineId": "5",
        "name": "Спортивная",
        "color": "#702785"
      },
      "geometry": {
        "type": "Point",
        "coordinates": [
          30.2914,
          59.9519
        ]
      }
    },
    {
      "type": "Feature",
      "properties": {
        "kind": "stop",
        "mode": "metro",
        "lineId": "5",
        "name": "Садовая",
        "color": "#702785"
      },
      "geometry": {
        "type": "Point",
        "coordinates": [
          30.3178,
          59.9267
        ]
      }
    }
  ]
}
